<?xml version="1.0" encoding="UTF-8"?>
<gpx version="1.1" creator="B4C rescue test — stationary at Station 1" xmlns="http://www.topografix.com/GPX/1/1">
  <wpt lat="32.4397600" lon="-97.8052200"><time>2026-01-01T09:00:00Z</time></wpt>
  <wpt lat="32.4397600" lon="-97.8052200"><time>2026-01-01T09:00:01Z</time></wpt>
  <wpt lat="32.4397600" lon="-97.8052200"><time>2026-01-01T09:00:02Z</time></wpt>
  <wpt lat="32.4397600" lon="-97.8052200"><time>2026-01-01T09:00:03Z</time></wpt>
  <wpt lat="32.4397600" lon="-97.8052200"><time>2026-01-01T09:00:04Z</time></wpt>
  <wpt lat="32.4397600" lon="-97.8052200"><time>2026-01-01T09:00:05Z</time></wpt>
  <wpt lat="32.4397600" lon="-97.8052200"><time>2026-01-01T09:00:06Z</time></wpt>
  <wpt lat="32.4397600" lon="-97.8052200"><time>2026-01-01T09:00:07Z</time></wpt>
  <wpt lat="32.4397600" lon="-97.8052200"><time>2026-01-01T09:00:08Z</time></wpt>
  <wpt lat="32.4397600" lon="-97.8052200"><time>2026-01-01T09:00:09Z</time></wpt>
  <wpt lat="32.4397600" lon="-97.8052200"><time>2026-01-01T09:00:10Z</time></wpt>
  <wpt lat="32.4397600" lon="-97.8052200"><time>2026-01-01T09:00:11Z</time></wpt>
  <wpt lat="32.4397600" lon="-97.8052200"><time>2026-01-01T09:00:12Z</time></wpt>
  <wpt lat="32.4397600" lon="-97.8052200"><time>2026-01-01T09:00:13Z</time></wpt>
  <wpt lat="32.4397600" lon="-97.8052200"><time>2026-01-01T09:00:14Z</time></wpt>
  <wpt lat="32.4397600" lon="-97.8052200"><time>2026-01-01T09:00:15Z</time></wpt>
  <wpt lat="32.4397600" lon="-97.8052200"><time>2026-01-01T09:00:16Z</time></wpt>
  <wpt lat="32.4397600" lon="-97.8052200"><time>2026-01-01T09:00:17Z</time></wpt>
  <wpt lat="32.4397600" lon="-97.8052200"><time>2026-01-01T09:00:18Z</time></wpt>
  <wpt lat="32.4397600" lon="-97.8052200"><time>2026-01-01T09:00:19Z</time></wpt>
  <wpt lat="32.4397600" lon="-97.8052200"><time>2026-01-01T09:00:20Z</time></wpt>
  <wpt lat="32.4397600" lon="-97.8052200"><time>2026-01-01T09:00:21Z</time></wpt>
  <wpt lat="32.4397600" lon="-97.8052200"><time>2026-01-01T09:00:22Z</time></wpt>
  <wpt lat="32.4397600" lon="-97.8052200"><time>2026-01-01T09:00:23Z</time></wpt>
  <wpt lat="32.4397600" lon="-97.8052200"><time>2026-01-01T09:00:24Z</time></wpt>
  <wpt lat="32.4397600" lon="-97.8052200"><time>2026-01-01T09:00:25Z</time></wpt>
  <wpt lat="32.4397600" lon="-97.8052200"><time>2026-01-01T09:00:26Z</time></wpt>
  <wpt lat="32.4397600" lon="-97.8052200"><time>2026-01-01T09:00:27Z</time></wpt>
  <wpt lat="32.4397600" lon="-97.8052200"><time>2026-01-01T09:00:28Z</time></wpt>
  <wpt lat="32.4397600" lon="-97.8052200"><time>2026-01-01T09:00:29Z</time></wpt>
  <wpt lat="32.4397600" lon="-97.8052200"><time>2026-01-01T09:00:30Z</time></wpt>
  <wpt lat="32.4397600" lon="-97.8052200"><time>2026-01-01T09:00:31Z</time></wpt>
  <wpt lat="32.4397600" lon="-97.8052200"><time>2026-01-01T09:00:32Z</time></wpt>
  <wpt lat="32.4397600" lon="-97.8052200"><time>2026-01-01T09:00:33Z</time></wpt>
  <wpt lat="32.4397600" lon="-97.8052200"><time>2026-01-01T09:00:34Z</time></wpt>
  <wpt lat="32.4397600" lon="-97.8052200"><time>2026-01-01T09:00:35Z</time></wpt>
  <wpt lat="32.4397600" lon="-97.8052200"><time>2026-01-01T09:00:36Z</time></wpt>
  <wpt lat="32.4397600" lon="-97.8052200"><time>2026-01-01T09:00:37Z</time></wpt>
  <wpt lat="32.4397600" lon="-97.8052200"><time>2026-01-01T09:00:38Z</time></wpt>
  <wpt lat="32.4397600" lon="-97.8052200"><time>2026-01-01T09:00:39Z</time></wpt>
  <wpt lat="32.4397600" lon="-97.8052200"><time>2026-01-01T09:00:40Z</time></wpt>
  <wpt lat="32.4397600" lon="-97.8052200"><time>2026-01-01T09:00:41Z</time></wpt>
  <wpt lat="32.4397600" lon="-97.8052200"><time>2026-01-01T09:00:42Z</time></wpt>
  <wpt lat="32.4397600" lon="-97.8052200"><time>2026-01-01T09:00:43Z</time></wpt>
  <wpt lat="32.4397600" lon="-97.8052200"><time>2026-01-01T09:00:44Z</time></wpt>
  <wpt lat="32.4397600" lon="-97.8052200"><time>2026-01-01T09:00:45Z</time></wpt>
  <wpt lat="32.4397600" lon="-97.8052200"><time>2026-01-01T09:00:46Z</time></wpt>
  <wpt lat="32.4397600" lon="-97.8052200"><time>2026-01-01T09:00:47Z</time></wpt>
  <wpt lat="32.4397600" lon="-97.8052200"><time>2026-01-01T09:00:48Z</time></wpt>
  <wpt lat="32.4397600" lon="-97.8052200"><time>2026-01-01T09:00:49Z</time></wpt>
  <wpt lat="32.4397600" lon="-97.8052200"><time>2026-01-01T09:00:50Z</time></wpt>
  <wpt lat="32.4397600" lon="-97.8052200"><time>2026-01-01T09:00:51Z</time></wpt>
  <wpt lat="32.4397600" lon="-97.8052200"><time>2026-01-01T09:00:52Z</time></wpt>
  <wpt lat="32.4397600" lon="-97.8052200"><time>2026-01-01T09:00:53Z</time></wpt>
  <wpt lat="32.4397600" lon="-97.8052200"><time>2026-01-01T09:00:54Z</time></wpt>
  <wpt lat="32.4397600" lon="-97.8052200"><time>2026-01-01T09:00:55Z</time></wpt>
  <wpt lat="32.4397600" lon="-97.8052200"><time>2026-01-01T09:00:56Z</time></wpt>
  <wpt lat="32.4397600" lon="-97.8052200"><time>2026-01-01T09:00:57Z</time></wpt>
  <wpt lat="32.4397600" lon="-97.8052200"><time>2026-01-01T09:00:58Z</time></wpt>
  <wpt lat="32.4397600" lon="-97.8052200"><time>2026-01-01T09:00:59Z</time></wpt>
  <wpt lat="32.4397600" lon="-97.8052200"><time>2026-01-01T09:01:00Z</time></wpt>
  <wpt lat="32.4397600" lon="-97.8052200"><time>2026-01-01T09:01:01Z</time></wpt>
  <wpt lat="32.4397600" lon="-97.8052200"><time>2026-01-01T09:01:02Z</time></wpt>
  <wpt lat="32.4397600" lon="-97.8052200"><time>2026-01-01T09:01:03Z</time></wpt>
  <wpt lat="32.4397600" lon="-97.8052200"><time>2026-01-01T09:01:04Z</time></wpt>
  <wpt lat="32.4397600" lon="-97.8052200"><time>2026-01-01T09:01:05Z</time></wpt>
  <wpt lat="32.4397600" lon="-97.8052200"><time>2026-01-01T09:01:06Z</time></wpt>
  <wpt lat="32.4397600" lon="-97.8052200"><time>2026-01-01T09:01:07Z</time></wpt>
  <wpt lat="32.4397600" lon="-97.8052200"><time>2026-01-01T09:01:08Z</time></wpt>
  <wpt lat="32.4397600" lon="-97.8052200"><time>2026-01-01T09:01:09Z</time></wpt>
  <wpt lat="32.4397600" lon="-97.8052200"><time>2026-01-01T09:01:10Z</time></wpt>
  <wpt lat="32.4397600" lon="-97.8052200"><time>2026-01-01T09:01:11Z</time></wpt>
  <wpt lat="32.4397600" lon="-97.8052200"><time>2026-01-01T09:01:12Z</time></wpt>
  <wpt lat="32.4397600" lon="-97.8052200"><time>2026-01-01T09:01:13Z</time></wpt>
  <wpt lat="32.4397600" lon="-97.8052200"><time>2026-01-01T09:01:14Z</time></wpt>
  <wpt lat="32.4397600" lon="-97.8052200"><time>2026-01-01T09:01:15Z</time></wpt>
  <wpt lat="32.4397600" lon="-97.8052200"><time>2026-01-01T09:01:16Z</time></wpt>
  <wpt lat="32.4397600" lon="-97.8052200"><time>2026-01-01T09:01:17Z</time></wpt>
  <wpt lat="32.4397600" lon="-97.8052200"><time>2026-01-01T09:01:18Z</time></wpt>
  <wpt lat="32.4397600" lon="-97.8052200"><time>2026-01-01T09:01:19Z</time></wpt>
  <wpt lat="32.4397600" lon="-97.8052200"><time>2026-01-01T09:01:20Z</time></wpt>
  <wpt lat="32.4397600" lon="-97.8052200"><time>2026-01-01T09:01:21Z</time></wpt>
  <wpt lat="32.4397600" lon="-97.8052200"><time>2026-01-01T09:01:22Z</time></wpt>
  <wpt lat="32.4397600" lon="-97.8052200"><time>2026-01-01T09:01:23Z</time></wpt>
  <wpt lat="32.4397600" lon="-97.8052200"><time>2026-01-01T09:01:24Z</time></wpt>
  <wpt lat="32.4397600" lon="-97.8052200"><time>2026-01-01T09:01:25Z</time></wpt>
  <wpt lat="32.4397600" lon="-97.8052200"><time>2026-01-01T09:01:26Z</time></wpt>
  <wpt lat="32.4397600" lon="-97.8052200"><time>2026-01-01T09:01:27Z</time></wpt>
  <wpt lat="32.4397600" lon="-97.8052200"><time>2026-01-01T09:01:28Z</time></wpt>
  <wpt lat="32.4397600" lon="-97.8052200"><time>2026-01-01T09:01:29Z</time></wpt>
  <wpt lat="32.4397600" lon="-97.8052200"><time>2026-01-01T09:01:30Z</time></wpt>
  <wpt lat="32.4397600" lon="-97.8052200"><time>2026-01-01T09:01:31Z</time></wpt>
  <wpt lat="32.4397600" lon="-97.8052200"><time>2026-01-01T09:01:32Z</time></wpt>
  <wpt lat="32.4397600" lon="-97.8052200"><time>2026-01-01T09:01:33Z</time></wpt>
  <wpt lat="32.4397600" lon="-97.8052200"><time>2026-01-01T09:01:34Z</time></wpt>
  <wpt lat="32.4397600" lon="-97.8052200"><time>2026-01-01T09:01:35Z</time></wpt>
  <wpt lat="32.4397600" lon="-97.8052200"><time>2026-01-01T09:01:36Z</time></wpt>
  <wpt lat="32.4397600" lon="-97.8052200"><time>2026-01-01T09:01:37Z</time></wpt>
  <wpt lat="32.4397600" lon="-97.8052200"><time>2026-01-01T09:01:38Z</time></wpt>
  <wpt lat="32.4397600" lon="-97.8052200"><time>2026-01-01T09:01:39Z</time></wpt>
  <wpt lat="32.4397600" lon="-97.8052200"><time>2026-01-01T09:01:40Z</time></wpt>
  <wpt lat="32.4397600" lon="-97.8052200"><time>2026-01-01T09:01:41Z</time></wpt>
  <wpt lat="32.4397600" lon="-97.8052200"><time>2026-01-01T09:01:42Z</time></wpt>
  <wpt lat="32.4397600" lon="-97.8052200"><time>2026-01-01T09:01:43Z</time></wpt>
  <wpt lat="32.4397600" lon="-97.8052200"><time>2026-01-01T09:01:44Z</time></wpt>
  <wpt lat="32.4397600" lon="-97.8052200"><time>2026-01-01T09:01:45Z</time></wpt>
  <wpt lat="32.4397600" lon="-97.8052200"><time>2026-01-01T09:01:46Z</time></wpt>
  <wpt lat="32.4397600" lon="-97.8052200"><time>2026-01-01T09:01:47Z</time></wpt>
  <wpt lat="32.4397600" lon="-97.8052200"><time>2026-01-01T09:01:48Z</time></wpt>
  <wpt lat="32.4397600" lon="-97.8052200"><time>2026-01-01T09:01:49Z</time></wpt>
  <wpt lat="32.4397600" lon="-97.8052200"><time>2026-01-01T09:01:50Z</time></wpt>
  <wpt lat="32.4397600" lon="-97.8052200"><time>2026-01-01T09:01:51Z</time></wpt>
  <wpt lat="32.4397600" lon="-97.8052200"><time>2026-01-01T09:01:52Z</time></wpt>
  <wpt lat="32.4397600" lon="-97.8052200"><time>2026-01-01T09:01:53Z</time></wpt>
  <wpt lat="32.4397600" lon="-97.8052200"><time>2026-01-01T09:01:54Z</time></wpt>
  <wpt lat="32.4397600" lon="-97.8052200"><time>2026-01-01T09:01:55Z</time></wpt>
  <wpt lat="32.4397600" lon="-97.8052200"><time>2026-01-01T09:01:56Z</time></wpt>
  <wpt lat="32.4397600" lon="-97.8052200"><time>2026-01-01T09:01:57Z</time></wpt>
  <wpt lat="32.4397600" lon="-97.8052200"><time>2026-01-01T09:01:58Z</time></wpt>
  <wpt lat="32.4397600" lon="-97.8052200"><time>2026-01-01T09:01:59Z</time></wpt>
  <wpt lat="32.4397600" lon="-97.8052200"><time>2026-01-01T09:02:00Z</time></wpt>
  <wpt lat="32.4397600" lon="-97.8052200"><time>2026-01-01T09:02:01Z</time></wpt>
  <wpt lat="32.4397600" lon="-97.8052200"><time>2026-01-01T09:02:02Z</time></wpt>
  <wpt lat="32.4397600" lon="-97.8052200"><time>2026-01-01T09:02:03Z</time></wpt>
  <wpt lat="32.4397600" lon="-97.8052200"><time>2026-01-01T09:02:04Z</time></wpt>
  <wpt lat="32.4397600" lon="-97.8052200"><time>2026-01-01T09:02:05Z</time></wpt>
  <wpt lat="32.4397600" lon="-97.8052200"><time>2026-01-01T09:02:06Z</time></wpt>
  <wpt lat="32.4397600" lon="-97.8052200"><time>2026-01-01T09:02:07Z</time></wpt>
  <wpt lat="32.4397600" lon="-97.8052200"><time>2026-01-01T09:02:08Z</time></wpt>
  <wpt lat="32.4397600" lon="-97.8052200"><time>2026-01-01T09:02:09Z</time></wpt>
  <wpt lat="32.4397600" lon="-97.8052200"><time>2026-01-01T09:02:10Z</time></wpt>
  <wpt lat="32.4397600" lon="-97.8052200"><time>2026-01-01T09:02:11Z</time></wpt>
  <wpt lat="32.4397600" lon="-97.8052200"><time>2026-01-01T09:02:12Z</time></wpt>
  <wpt lat="32.4397600" lon="-97.8052200"><time>2026-01-01T09:02:13Z</time></wpt>
  <wpt lat="32.4397600" lon="-97.8052200"><time>2026-01-01T09:02:14Z</time></wpt>
  <wpt lat="32.4397600" lon="-97.8052200"><time>2026-01-01T09:02:15Z</time></wpt>
  <wpt lat="32.4397600" lon="-97.8052200"><time>2026-01-01T09:02:16Z</time></wpt>
  <wpt lat="32.4397600" lon="-97.8052200"><time>2026-01-01T09:02:17Z</time></wpt>
  <wpt lat="32.4397600" lon="-97.8052200"><time>2026-01-01T09:02:18Z</time></wpt>
  <wpt lat="32.4397600" lon="-97.8052200"><time>2026-01-01T09:02:19Z</time></wpt>
  <wpt lat="32.4397600" lon="-97.8052200"><time>2026-01-01T09:02:20Z</time></wpt>
  <wpt lat="32.4397600" lon="-97.8052200"><time>2026-01-01T09:02:21Z</time></wpt>
  <wpt lat="32.4397600" lon="-97.8052200"><time>2026-01-01T09:02:22Z</time></wpt>
  <wpt lat="32.4397600" lon="-97.8052200"><time>2026-01-01T09:02:23Z</time></wpt>
  <wpt lat="32.4397600" lon="-97.8052200"><time>2026-01-01T09:02:24Z</time></wpt>
  <wpt lat="32.4397600" lon="-97.8052200"><time>2026-01-01T09:02:25Z</time></wpt>
  <wpt lat="32.4397600" lon="-97.8052200"><time>2026-01-01T09:02:26Z</time></wpt>
  <wpt lat="32.4397600" lon="-97.8052200"><time>2026-01-01T09:02:27Z</time></wpt>
  <wpt lat="32.4397600" lon="-97.8052200"><time>2026-01-01T09:02:28Z</time></wpt>
  <wpt lat="32.4397600" lon="-97.8052200"><time>2026-01-01T09:02:29Z</time></wpt>
  <wpt lat="32.4397600" lon="-97.8052200"><time>2026-01-01T09:02:30Z</time></wpt>
  <wpt lat="32.4397600" lon="-97.8052200"><time>2026-01-01T09:02:31Z</time></wpt>
  <wpt lat="32.4397600" lon="-97.8052200"><time>2026-01-01T09:02:32Z</time></wpt>
  <wpt lat="32.4397600" lon="-97.8052200"><time>2026-01-01T09:02:33Z</time></wpt>
  <wpt lat="32.4397600" lon="-97.8052200"><time>2026-01-01T09:02:34Z</time></wpt>
  <wpt lat="32.4397600" lon="-97.8052200"><time>2026-01-01T09:02:35Z</time></wpt>
  <wpt lat="32.4397600" lon="-97.8052200"><time>2026-01-01T09:02:36Z</time></wpt>
  <wpt lat="32.4397600" lon="-97.8052200"><time>2026-01-01T09:02:37Z</time></wpt>
  <wpt lat="32.4397600" lon="-97.8052200"><time>2026-01-01T09:02:38Z</time></wpt>
  <wpt lat="32.4397600" lon="-97.8052200"><time>2026-01-01T09:02:39Z</time></wpt>
  <wpt lat="32.4397600" lon="-97.8052200"><time>2026-01-01T09:02:40Z</time></wpt>
  <wpt lat="32.4397600" lon="-97.8052200"><time>2026-01-01T09:02:41Z</time></wpt>
  <wpt lat="32.4397600" lon="-97.8052200"><time>2026-01-01T09:02:42Z</time></wpt>
  <wpt lat="32.4397600" lon="-97.8052200"><time>2026-01-01T09:02:43Z</time></wpt>
  <wpt lat="32.4397600" lon="-97.8052200"><time>2026-01-01T09:02:44Z</time></wpt>
  <wpt lat="32.4397600" lon="-97.8052200"><time>2026-01-01T09:02:45Z</time></wpt>
  <wpt lat="32.4397600" lon="-97.8052200"><time>2026-01-01T09:02:46Z</time></wpt>
  <wpt lat="32.4397600" lon="-97.8052200"><time>2026-01-01T09:02:47Z</time></wpt>
  <wpt lat="32.4397600" lon="-97.8052200"><time>2026-01-01T09:02:48Z</time></wpt>
  <wpt lat="32.4397600" lon="-97.8052200"><time>2026-01-01T09:02:49Z</time></wpt>
  <wpt lat="32.4397600" lon="-97.8052200"><time>2026-01-01T09:02:50Z</time></wpt>
  <wpt lat="32.4397600" lon="-97.8052200"><time>2026-01-01T09:02:51Z</time></wpt>
  <wpt lat="32.4397600" lon="-97.8052200"><time>2026-01-01T09:02:52Z</time></wpt>
  <wpt lat="32.4397600" lon="-97.8052200"><time>2026-01-01T09:02:53Z</time></wpt>
  <wpt lat="32.4397600" lon="-97.8052200"><time>2026-01-01T09:02:54Z</time></wpt>
  <wpt lat="32.4397600" lon="-97.8052200"><time>2026-01-01T09:02:55Z</time></wpt>
  <wpt lat="32.4397600" lon="-97.8052200"><time>2026-01-01T09:02:56Z</time></wpt>
  <wpt lat="32.4397600" lon="-97.8052200"><time>2026-01-01T09:02:57Z</time></wpt>
  <wpt lat="32.4397600" lon="-97.8052200"><time>2026-01-01T09:02:58Z</time></wpt>
  <wpt lat="32.4397600" lon="-97.8052200"><time>2026-01-01T09:02:59Z</time></wpt>
  <wpt lat="32.4397600" lon="-97.8052200"><time>2026-01-01T09:03:00Z</time></wpt>
  <wpt lat="32.4397600" lon="-97.8052200"><time>2026-01-01T09:03:01Z</time></wpt>
  <wpt lat="32.4397600" lon="-97.8052200"><time>2026-01-01T09:03:02Z</time></wpt>
  <wpt lat="32.4397600" lon="-97.8052200"><time>2026-01-01T09:03:03Z</time></wpt>
  <wpt lat="32.4397600" lon="-97.8052200"><time>2026-01-01T09:03:04Z</time></wpt>
  <wpt lat="32.4397600" lon="-97.8052200"><time>2026-01-01T09:03:05Z</time></wpt>
  <wpt lat="32.4397600" lon="-97.8052200"><time>2026-01-01T09:03:06Z</time></wpt>
  <wpt lat="32.4397600" lon="-97.8052200"><time>2026-01-01T09:03:07Z</time></wpt>
  <wpt lat="32.4397600" lon="-97.8052200"><time>2026-01-01T09:03:08Z</time></wpt>
  <wpt lat="32.4397600" lon="-97.8052200"><time>2026-01-01T09:03:09Z</time></wpt>
  <wpt lat="32.4397600" lon="-97.8052200"><time>2026-01-01T09:03:10Z</time></wpt>
  <wpt lat="32.4397600" lon="-97.8052200"><time>2026-01-01T09:03:11Z</time></wpt>
  <wpt lat="32.4397600" lon="-97.8052200"><time>2026-01-01T09:03:12Z</time></wpt>
  <wpt lat="32.4397600" lon="-97.8052200"><time>2026-01-01T09:03:13Z</time></wpt>
  <wpt lat="32.4397600" lon="-97.8052200"><time>2026-01-01T09:03:14Z</time></wpt>
  <wpt lat="32.4397600" lon="-97.8052200"><time>2026-01-01T09:03:15Z</time></wpt>
  <wpt lat="32.4397600" lon="-97.8052200"><time>2026-01-01T09:03:16Z</time></wpt>
  <wpt lat="32.4397600" lon="-97.8052200"><time>2026-01-01T09:03:17Z</time></wpt>
  <wpt lat="32.4397600" lon="-97.8052200"><time>2026-01-01T09:03:18Z</time></wpt>
  <wpt lat="32.4397600" lon="-97.8052200"><time>2026-01-01T09:03:19Z</time></wpt>
  <wpt lat="32.4397600" lon="-97.8052200"><time>2026-01-01T09:03:20Z</time></wpt>
  <wpt lat="32.4397600" lon="-97.8052200"><time>2026-01-01T09:03:21Z</time></wpt>
  <wpt lat="32.4397600" lon="-97.8052200"><time>2026-01-01T09:03:22Z</time></wpt>
  <wpt lat="32.4397600" lon="-97.8052200"><time>2026-01-01T09:03:23Z</time></wpt>
  <wpt lat="32.4397600" lon="-97.8052200"><time>2026-01-01T09:03:24Z</time></wpt>
  <wpt lat="32.4397600" lon="-97.8052200"><time>2026-01-01T09:03:25Z</time></wpt>
  <wpt lat="32.4397600" lon="-97.8052200"><time>2026-01-01T09:03:26Z</time></wpt>
  <wpt lat="32.4397600" lon="-97.8052200"><time>2026-01-01T09:03:27Z</time></wpt>
  <wpt lat="32.4397600" lon="-97.8052200"><time>2026-01-01T09:03:28Z</time></wpt>
  <wpt lat="32.4397600" lon="-97.8052200"><time>2026-01-01T09:03:29Z</time></wpt>
  <wpt lat="32.4397600" lon="-97.8052200"><time>2026-01-01T09:03:30Z</time></wpt>
  <wpt lat="32.4397600" lon="-97.8052200"><time>2026-01-01T09:03:31Z</time></wpt>
  <wpt lat="32.4397600" lon="-97.8052200"><time>2026-01-01T09:03:32Z</time></wpt>
  <wpt lat="32.4397600" lon="-97.8052200"><time>2026-01-01T09:03:33Z</time></wpt>
  <wpt lat="32.4397600" lon="-97.8052200"><time>2026-01-01T09:03:34Z</time></wpt>
  <wpt lat="32.4397600" lon="-97.8052200"><time>2026-01-01T09:03:35Z</time></wpt>
  <wpt lat="32.4397600" lon="-97.8052200"><time>2026-01-01T09:03:36Z</time></wpt>
  <wpt lat="32.4397600" lon="-97.8052200"><time>2026-01-01T09:03:37Z</time></wpt>
  <wpt lat="32.4397600" lon="-97.8052200"><time>2026-01-01T09:03:38Z</time></wpt>
  <wpt lat="32.4397600" lon="-97.8052200"><time>2026-01-01T09:03:39Z</time></wpt>
  <wpt lat="32.4397600" lon="-97.8052200"><time>2026-01-01T09:03:40Z</time></wpt>
  <wpt lat="32.4397600" lon="-97.8052200"><time>2026-01-01T09:03:41Z</time></wpt>
  <wpt lat="32.4397600" lon="-97.8052200"><time>2026-01-01T09:03:42Z</time></wpt>
  <wpt lat="32.4397600" lon="-97.8052200"><time>2026-01-01T09:03:43Z</time></wpt>
  <wpt lat="32.4397600" lon="-97.8052200"><time>2026-01-01T09:03:44Z</time></wpt>
  <wpt lat="32.4397600" lon="-97.8052200"><time>2026-01-01T09:03:45Z</time></wpt>
  <wpt lat="32.4397600" lon="-97.8052200"><time>2026-01-01T09:03:46Z</time></wpt>
  <wpt lat="32.4397600" lon="-97.8052200"><time>2026-01-01T09:03:47Z</time></wpt>
  <wpt lat="32.4397600" lon="-97.8052200"><time>2026-01-01T09:03:48Z</time></wpt>
  <wpt lat="32.4397600" lon="-97.8052200"><time>2026-01-01T09:03:49Z</time></wpt>
  <wpt lat="32.4397600" lon="-97.8052200"><time>2026-01-01T09:03:50Z</time></wpt>
  <wpt lat="32.4397600" lon="-97.8052200"><time>2026-01-01T09:03:51Z</time></wpt>
  <wpt lat="32.4397600" lon="-97.8052200"><time>2026-01-01T09:03:52Z</time></wpt>
  <wpt lat="32.4397600" lon="-97.8052200"><time>2026-01-01T09:03:53Z</time></wpt>
  <wpt lat="32.4397600" lon="-97.8052200"><time>2026-01-01T09:03:54Z</time></wpt>
  <wpt lat="32.4397600" lon="-97.8052200"><time>2026-01-01T09:03:55Z</time></wpt>
  <wpt lat="32.4397600" lon="-97.8052200"><time>2026-01-01T09:03:56Z</time></wpt>
  <wpt lat="32.4397600" lon="-97.8052200"><time>2026-01-01T09:03:57Z</time></wpt>
  <wpt lat="32.4397600" lon="-97.8052200"><time>2026-01-01T09:03:58Z</time></wpt>
  <wpt lat="32.4397600" lon="-97.8052200"><time>2026-01-01T09:03:59Z</time></wpt>
  <wpt lat="32.4397600" lon="-97.8052200"><time>2026-01-01T09:04:00Z</time></wpt>
  <wpt lat="32.4397600" lon="-97.8052200"><time>2026-01-01T09:04:01Z</time></wpt>
  <wpt lat="32.4397600" lon="-97.8052200"><time>2026-01-01T09:04:02Z</time></wpt>
  <wpt lat="32.4397600" lon="-97.8052200"><time>2026-01-01T09:04:03Z</time></wpt>
  <wpt lat="32.4397600" lon="-97.8052200"><time>2026-01-01T09:04:04Z</time></wpt>
  <wpt lat="32.4397600" lon="-97.8052200"><time>2026-01-01T09:04:05Z</time></wpt>
  <wpt lat="32.4397600" lon="-97.8052200"><time>2026-01-01T09:04:06Z</time></wpt>
  <wpt lat="32.4397600" lon="-97.8052200"><time>2026-01-01T09:04:07Z</time></wpt>
  <wpt lat="32.4397600" lon="-97.8052200"><time>2026-01-01T09:04:08Z</time></wpt>
  <wpt lat="32.4397600" lon="-97.8052200"><time>2026-01-01T09:04:09Z</time></wpt>
  <wpt lat="32.4397600" lon="-97.8052200"><time>2026-01-01T09:04:10Z</time></wpt>
  <wpt lat="32.4397600" lon="-97.8052200"><time>2026-01-01T09:04:11Z</time></wpt>
  <wpt lat="32.4397600" lon="-97.8052200"><time>2026-01-01T09:04:12Z</time></wpt>
  <wpt lat="32.4397600" lon="-97.8052200"><time>2026-01-01T09:04:13Z</time></wpt>
  <wpt lat="32.4397600" lon="-97.8052200"><time>2026-01-01T09:04:14Z</time></wpt>
  <wpt lat="32.4397600" lon="-97.8052200"><time>2026-01-01T09:04:15Z</time></wpt>
  <wpt lat="32.4397600" lon="-97.8052200"><time>2026-01-01T09:04:16Z</time></wpt>
  <wpt lat="32.4397600" lon="-97.8052200"><time>2026-01-01T09:04:17Z</time></wpt>
  <wpt lat="32.4397600" lon="-97.8052200"><time>2026-01-01T09:04:18Z</time></wpt>
  <wpt lat="32.4397600" lon="-97.8052200"><time>2026-01-01T09:04:19Z</time></wpt>
  <wpt lat="32.4397600" lon="-97.8052200"><time>2026-01-01T09:04:20Z</time></wpt>
  <wpt lat="32.4397600" lon="-97.8052200"><time>2026-01-01T09:04:21Z</time></wpt>
  <wpt lat="32.4397600" lon="-97.8052200"><time>2026-01-01T09:04:22Z</time></wpt>
  <wpt lat="32.4397600" lon="-97.8052200"><time>2026-01-01T09:04:23Z</time></wpt>
  <wpt lat="32.4397600" lon="-97.8052200"><time>2026-01-01T09:04:24Z</time></wpt>
  <wpt lat="32.4397600" lon="-97.8052200"><time>2026-01-01T09:04:25Z</time></wpt>
  <wpt lat="32.4397600" lon="-97.8052200"><time>2026-01-01T09:04:26Z</time></wpt>
  <wpt lat="32.4397600" lon="-97.8052200"><time>2026-01-01T09:04:27Z</time></wpt>
  <wpt lat="32.4397600" lon="-97.8052200"><time>2026-01-01T09:04:28Z</time></wpt>
  <wpt lat="32.4397600" lon="-97.8052200"><time>2026-01-01T09:04:29Z</time></wpt>
  <wpt lat="32.4397600" lon="-97.8052200"><time>2026-01-01T09:04:30Z</time></wpt>
  <wpt lat="32.4397600" lon="-97.8052200"><time>2026-01-01T09:04:31Z</time></wpt>
  <wpt lat="32.4397600" lon="-97.8052200"><time>2026-01-01T09:04:32Z</time></wpt>
  <wpt lat="32.4397600" lon="-97.8052200"><time>2026-01-01T09:04:33Z</time></wpt>
  <wpt lat="32.4397600" lon="-97.8052200"><time>2026-01-01T09:04:34Z</time></wpt>
  <wpt lat="32.4397600" lon="-97.8052200"><time>2026-01-01T09:04:35Z</time></wpt>
  <wpt lat="32.4397600" lon="-97.8052200"><time>2026-01-01T09:04:36Z</time></wpt>
  <wpt lat="32.4397600" lon="-97.8052200"><time>2026-01-01T09:04:37Z</time></wpt>
  <wpt lat="32.4397600" lon="-97.8052200"><time>2026-01-01T09:04:38Z</time></wpt>
  <wpt lat="32.4397600" lon="-97.8052200"><time>2026-01-01T09:04:39Z</time></wpt>
  <wpt lat="32.4397600" lon="-97.8052200"><time>2026-01-01T09:04:40Z</time></wpt>
  <wpt lat="32.4397600" lon="-97.8052200"><time>2026-01-01T09:04:41Z</time></wpt>
  <wpt lat="32.4397600" lon="-97.8052200"><time>2026-01-01T09:04:42Z</time></wpt>
  <wpt lat="32.4397600" lon="-97.8052200"><time>2026-01-01T09:04:43Z</time></wpt>
  <wpt lat="32.4397600" lon="-97.8052200"><time>2026-01-01T09:04:44Z</time></wpt>
  <wpt lat="32.4397600" lon="-97.8052200"><time>2026-01-01T09:04:45Z</time></wpt>
  <wpt lat="32.4397600" lon="-97.8052200"><time>2026-01-01T09:04:46Z</time></wpt>
  <wpt lat="32.4397600" lon="-97.8052200"><time>2026-01-01T09:04:47Z</time></wpt>
  <wpt lat="32.4397600" lon="-97.8052200"><time>2026-01-01T09:04:48Z</time></wpt>
  <wpt lat="32.4397600" lon="-97.8052200"><time>2026-01-01T09:04:49Z</time></wpt>
  <wpt lat="32.4397600" lon="-97.8052200"><time>2026-01-01T09:04:50Z</time></wpt>
  <wpt lat="32.4397600" lon="-97.8052200"><time>2026-01-01T09:04:51Z</time></wpt>
  <wpt lat="32.4397600" lon="-97.8052200"><time>2026-01-01T09:04:52Z</time></wpt>
  <wpt lat="32.4397600" lon="-97.8052200"><time>2026-01-01T09:04:53Z</time></wpt>
  <wpt lat="32.4397600" lon="-97.8052200"><time>2026-01-01T09:04:54Z</time></wpt>
  <wpt lat="32.4397600" lon="-97.8052200"><time>2026-01-01T09:04:55Z</time></wpt>
  <wpt lat="32.4397600" lon="-97.8052200"><time>2026-01-01T09:04:56Z</time></wpt>
  <wpt lat="32.4397600" lon="-97.8052200"><time>2026-01-01T09:04:57Z</time></wpt>
  <wpt lat="32.4397600" lon="-97.8052200"><time>2026-01-01T09:04:58Z</time></wpt>
  <wpt lat="32.4397600" lon="-97.8052200"><time>2026-01-01T09:04:59Z</time></wpt>
  <wpt lat="32.4397600" lon="-97.8052200"><time>2026-01-01T09:05:00Z</time></wpt>
  <wpt lat="32.4397600" lon="-97.8052200"><time>2026-01-01T09:05:01Z</time></wpt>
  <wpt lat="32.4397600" lon="-97.8052200"><time>2026-01-01T09:05:02Z</time></wpt>
  <wpt lat="32.4397600" lon="-97.8052200"><time>2026-01-01T09:05:03Z</time></wpt>
  <wpt lat="32.4397600" lon="-97.8052200"><time>2026-01-01T09:05:04Z</time></wpt>
  <wpt lat="32.4397600" lon="-97.8052200"><time>2026-01-01T09:05:05Z</time></wpt>
  <wpt lat="32.4397600" lon="-97.8052200"><time>2026-01-01T09:05:06Z</time></wpt>
  <wpt lat="32.4397600" lon="-97.8052200"><time>2026-01-01T09:05:07Z</time></wpt>
  <wpt lat="32.4397600" lon="-97.8052200"><time>2026-01-01T09:05:08Z</time></wpt>
  <wpt lat="32.4397600" lon="-97.8052200"><time>2026-01-01T09:05:09Z</time></wpt>
  <wpt lat="32.4397600" lon="-97.8052200"><time>2026-01-01T09:05:10Z</time></wpt>
  <wpt lat="32.4397600" lon="-97.8052200"><time>2026-01-01T09:05:11Z</time></wpt>
  <wpt lat="32.4397600" lon="-97.8052200"><time>2026-01-01T09:05:12Z</time></wpt>
  <wpt lat="32.4397600" lon="-97.8052200"><time>2026-01-01T09:05:13Z</time></wpt>
  <wpt lat="32.4397600" lon="-97.8052200"><time>2026-01-01T09:05:14Z</time></wpt>
  <wpt lat="32.4397600" lon="-97.8052200"><time>2026-01-01T09:05:15Z</time></wpt>
  <wpt lat="32.4397600" lon="-97.8052200"><time>2026-01-01T09:05:16Z</time></wpt>
  <wpt lat="32.4397600" lon="-97.8052200"><time>2026-01-01T09:05:17Z</time></wpt>
  <wpt lat="32.4397600" lon="-97.8052200"><time>2026-01-01T09:05:18Z</time></wpt>
  <wpt lat="32.4397600" lon="-97.8052200"><time>2026-01-01T09:05:19Z</time></wpt>
  <wpt lat="32.4397600" lon="-97.8052200"><time>2026-01-01T09:05:20Z</time></wpt>
  <wpt lat="32.4397600" lon="-97.8052200"><time>2026-01-01T09:05:21Z</time></wpt>
  <wpt lat="32.4397600" lon="-97.8052200"><time>2026-01-01T09:05:22Z</time></wpt>
  <wpt lat="32.4397600" lon="-97.8052200"><time>2026-01-01T09:05:23Z</time></wpt>
  <wpt lat="32.4397600" lon="-97.8052200"><time>2026-01-01T09:05:24Z</time></wpt>
  <wpt lat="32.4397600" lon="-97.8052200"><time>2026-01-01T09:05:25Z</time></wpt>
  <wpt lat="32.4397600" lon="-97.8052200"><time>2026-01-01T09:05:26Z</time></wpt>
  <wpt lat="32.4397600" lon="-97.8052200"><time>2026-01-01T09:05:27Z</time></wpt>
  <wpt lat="32.4397600" lon="-97.8052200"><time>2026-01-01T09:05:28Z</time></wpt>
  <wpt lat="32.4397600" lon="-97.8052200"><time>2026-01-01T09:05:29Z</time></wpt>
  <wpt lat="32.4397600" lon="-97.8052200"><time>2026-01-01T09:05:30Z</time></wpt>
  <wpt lat="32.4397600" lon="-97.8052200"><time>2026-01-01T09:05:31Z</time></wpt>
  <wpt lat="32.4397600" lon="-97.8052200"><time>2026-01-01T09:05:32Z</time></wpt>
  <wpt lat="32.4397600" lon="-97.8052200"><time>2026-01-01T09:05:33Z</time></wpt>
  <wpt lat="32.4397600" lon="-97.8052200"><time>2026-01-01T09:05:34Z</time></wpt>
  <wpt lat="32.4397600" lon="-97.8052200"><time>2026-01-01T09:05:35Z</time></wpt>
  <wpt lat="32.4397600" lon="-97.8052200"><time>2026-01-01T09:05:36Z</time></wpt>
  <wpt lat="32.4397600" lon="-97.8052200"><time>2026-01-01T09:05:37Z</time></wpt>
  <wpt lat="32.4397600" lon="-97.8052200"><time>2026-01-01T09:05:38Z</time></wpt>
  <wpt lat="32.4397600" lon="-97.8052200"><time>2026-01-01T09:05:39Z</time></wpt>
  <wpt lat="32.4397600" lon="-97.8052200"><time>2026-01-01T09:05:40Z</time></wpt>
  <wpt lat="32.4397600" lon="-97.8052200"><time>2026-01-01T09:05:41Z</time></wpt>
  <wpt lat="32.4397600" lon="-97.8052200"><time>2026-01-01T09:05:42Z</time></wpt>
  <wpt lat="32.4397600" lon="-97.8052200"><time>2026-01-01T09:05:43Z</time></wpt>
  <wpt lat="32.4397600" lon="-97.8052200"><time>2026-01-01T09:05:44Z</time></wpt>
  <wpt lat="32.4397600" lon="-97.8052200"><time>2026-01-01T09:05:45Z</time></wpt>
  <wpt lat="32.4397600" lon="-97.8052200"><time>2026-01-01T09:05:46Z</time></wpt>
  <wpt lat="32.4397600" lon="-97.8052200"><time>2026-01-01T09:05:47Z</time></wpt>
  <wpt lat="32.4397600" lon="-97.8052200"><time>2026-01-01T09:05:48Z</time></wpt>
  <wpt lat="32.4397600" lon="-97.8052200"><time>2026-01-01T09:05:49Z</time></wpt>
  <wpt lat="32.4397600" lon="-97.8052200"><time>2026-01-01T09:05:50Z</time></wpt>
  <wpt lat="32.4397600" lon="-97.8052200"><time>2026-01-01T09:05:51Z</time></wpt>
  <wpt lat="32.4397600" lon="-97.8052200"><time>2026-01-01T09:05:52Z</time></wpt>
  <wpt lat="32.4397600" lon="-97.8052200"><time>2026-01-01T09:05:53Z</time></wpt>
  <wpt lat="32.4397600" lon="-97.8052200"><time>2026-01-01T09:05:54Z</time></wpt>
  <wpt lat="32.4397600" lon="-97.8052200"><time>2026-01-01T09:05:55Z</time></wpt>
  <wpt lat="32.4397600" lon="-97.8052200"><time>2026-01-01T09:05:56Z</time></wpt>
  <wpt lat="32.4397600" lon="-97.8052200"><time>2026-01-01T09:05:57Z</time></wpt>
  <wpt lat="32.4397600" lon="-97.8052200"><time>2026-01-01T09:05:58Z</time></wpt>
  <wpt lat="32.4397600" lon="-97.8052200"><time>2026-01-01T09:05:59Z</time></wpt>
  <wpt lat="32.4397600" lon="-97.8052200"><time>2026-01-01T09:06:00Z</time></wpt>
  <wpt lat="32.4397600" lon="-97.8052200"><time>2026-01-01T09:06:01Z</time></wpt>
  <wpt lat="32.4397600" lon="-97.8052200"><time>2026-01-01T09:06:02Z</time></wpt>
  <wpt lat="32.4397600" lon="-97.8052200"><time>2026-01-01T09:06:03Z</time></wpt>
  <wpt lat="32.4397600" lon="-97.8052200"><time>2026-01-01T09:06:04Z</time></wpt>
  <wpt lat="32.4397600" lon="-97.8052200"><time>2026-01-01T09:06:05Z</time></wpt>
  <wpt lat="32.4397600" lon="-97.8052200"><time>2026-01-01T09:06:06Z</time></wpt>
  <wpt lat="32.4397600" lon="-97.8052200"><time>2026-01-01T09:06:07Z</time></wpt>
  <wpt lat="32.4397600" lon="-97.8052200"><time>2026-01-01T09:06:08Z</time></wpt>
  <wpt lat="32.4397600" lon="-97.8052200"><time>2026-01-01T09:06:09Z</time></wpt>
  <wpt lat="32.4397600" lon="-97.8052200"><time>2026-01-01T09:06:10Z</time></wpt>
  <wpt lat="32.4397600" lon="-97.8052200"><time>2026-01-01T09:06:11Z</time></wpt>
  <wpt lat="32.4397600" lon="-97.8052200"><time>2026-01-01T09:06:12Z</time></wpt>
  <wpt lat="32.4397600" lon="-97.8052200"><time>2026-01-01T09:06:13Z</time></wpt>
  <wpt lat="32.4397600" lon="-97.8052200"><time>2026-01-01T09:06:14Z</time></wpt>
  <wpt lat="32.4397600" lon="-97.8052200"><time>2026-01-01T09:06:15Z</time></wpt>
  <wpt lat="32.4397600" lon="-97.8052200"><time>2026-01-01T09:06:16Z</time></wpt>
  <wpt lat="32.4397600" lon="-97.8052200"><time>2026-01-01T09:06:17Z</time></wpt>
  <wpt lat="32.4397600" lon="-97.8052200"><time>2026-01-01T09:06:18Z</time></wpt>
  <wpt lat="32.4397600" lon="-97.8052200"><time>2026-01-01T09:06:19Z</time></wpt>
  <wpt lat="32.4397600" lon="-97.8052200"><time>2026-01-01T09:06:20Z</time></wpt>
  <wpt lat="32.4397600" lon="-97.8052200"><time>2026-01-01T09:06:21Z</time></wpt>
  <wpt lat="32.4397600" lon="-97.8052200"><time>2026-01-01T09:06:22Z</time></wpt>
  <wpt lat="32.4397600" lon="-97.8052200"><time>2026-01-01T09:06:23Z</time></wpt>
  <wpt lat="32.4397600" lon="-97.8052200"><time>2026-01-01T09:06:24Z</time></wpt>
  <wpt lat="32.4397600" lon="-97.8052200"><time>2026-01-01T09:06:25Z</time></wpt>
  <wpt lat="32.4397600" lon="-97.8052200"><time>2026-01-01T09:06:26Z</time></wpt>
  <wpt lat="32.4397600" lon="-97.8052200"><time>2026-01-01T09:06:27Z</time></wpt>
  <wpt lat="32.4397600" lon="-97.8052200"><time>2026-01-01T09:06:28Z</time></wpt>
  <wpt lat="32.4397600" lon="-97.8052200"><time>2026-01-01T09:06:29Z</time></wpt>
  <wpt lat="32.4397600" lon="-97.8052200"><time>2026-01-01T09:06:30Z</time></wpt>
  <wpt lat="32.4397600" lon="-97.8052200"><time>2026-01-01T09:06:31Z</time></wpt>
  <wpt lat="32.4397600" lon="-97.8052200"><time>2026-01-01T09:06:32Z</time></wpt>
  <wpt lat="32.4397600" lon="-97.8052200"><time>2026-01-01T09:06:33Z</time></wpt>
  <wpt lat="32.4397600" lon="-97.8052200"><time>2026-01-01T09:06:34Z</time></wpt>
  <wpt lat="32.4397600" lon="-97.8052200"><time>2026-01-01T09:06:35Z</time></wpt>
  <wpt lat="32.4397600" lon="-97.8052200"><time>2026-01-01T09:06:36Z</time></wpt>
  <wpt lat="32.4397600" lon="-97.8052200"><time>2026-01-01T09:06:37Z</time></wpt>
  <wpt lat="32.4397600" lon="-97.8052200"><time>2026-01-01T09:06:38Z</time></wpt>
  <wpt lat="32.4397600" lon="-97.8052200"><time>2026-01-01T09:06:39Z</time></wpt>
  <wpt lat="32.4397600" lon="-97.8052200"><time>2026-01-01T09:06:40Z</time></wpt>
  <wpt lat="32.4397600" lon="-97.8052200"><time>2026-01-01T09:06:41Z</time></wpt>
  <wpt lat="32.4397600" lon="-97.8052200"><time>2026-01-01T09:06:42Z</time></wpt>
  <wpt lat="32.4397600" lon="-97.8052200"><time>2026-01-01T09:06:43Z</time></wpt>
  <wpt lat="32.4397600" lon="-97.8052200"><time>2026-01-01T09:06:44Z</time></wpt>
  <wpt lat="32.4397600" lon="-97.8052200"><time>2026-01-01T09:06:45Z</time></wpt>
  <wpt lat="32.4397600" lon="-97.8052200"><time>2026-01-01T09:06:46Z</time></wpt>
  <wpt lat="32.4397600" lon="-97.8052200"><time>2026-01-01T09:06:47Z</time></wpt>
  <wpt lat="32.4397600" lon="-97.8052200"><time>2026-01-01T09:06:48Z</time></wpt>
  <wpt lat="32.4397600" lon="-97.8052200"><time>2026-01-01T09:06:49Z</time></wpt>
  <wpt lat="32.4397600" lon="-97.8052200"><time>2026-01-01T09:06:50Z</time></wpt>
  <wpt lat="32.4397600" lon="-97.8052200"><time>2026-01-01T09:06:51Z</time></wpt>
  <wpt lat="32.4397600" lon="-97.8052200"><time>2026-01-01T09:06:52Z</time></wpt>
  <wpt lat="32.4397600" lon="-97.8052200"><time>2026-01-01T09:06:53Z</time></wpt>
  <wpt lat="32.4397600" lon="-97.8052200"><time>2026-01-01T09:06:54Z</time></wpt>
  <wpt lat="32.4397600" lon="-97.8052200"><time>2026-01-01T09:06:55Z</time></wpt>
  <wpt lat="32.4397600" lon="-97.8052200"><time>2026-01-01T09:06:56Z</time></wpt>
  <wpt lat="32.4397600" lon="-97.8052200"><time>2026-01-01T09:06:57Z</time></wpt>
  <wpt lat="32.4397600" lon="-97.8052200"><time>2026-01-01T09:06:58Z</time></wpt>
  <wpt lat="32.4397600" lon="-97.8052200"><time>2026-01-01T09:06:59Z</time></wpt>
  <wpt lat="32.4397600" lon="-97.8052200"><time>2026-01-01T09:07:00Z</time></wpt>
  <wpt lat="32.4397600" lon="-97.8052200"><time>2026-01-01T09:07:01Z</time></wpt>
  <wpt lat="32.4397600" lon="-97.8052200"><time>2026-01-01T09:07:02Z</time></wpt>
  <wpt lat="32.4397600" lon="-97.8052200"><time>2026-01-01T09:07:03Z</time></wpt>
  <wpt lat="32.4397600" lon="-97.8052200"><time>2026-01-01T09:07:04Z</time></wpt>
  <wpt lat="32.4397600" lon="-97.8052200"><time>2026-01-01T09:07:05Z</time></wpt>
  <wpt lat="32.4397600" lon="-97.8052200"><time>2026-01-01T09:07:06Z</time></wpt>
  <wpt lat="32.4397600" lon="-97.8052200"><time>2026-01-01T09:07:07Z</time></wpt>
  <wpt lat="32.4397600" lon="-97.8052200"><time>2026-01-01T09:07:08Z</time></wpt>
  <wpt lat="32.4397600" lon="-97.8052200"><time>2026-01-01T09:07:09Z</time></wpt>
  <wpt lat="32.4397600" lon="-97.8052200"><time>2026-01-01T09:07:10Z</time></wpt>
  <wpt lat="32.4397600" lon="-97.8052200"><time>2026-01-01T09:07:11Z</time></wpt>
  <wpt lat="32.4397600" lon="-97.8052200"><time>2026-01-01T09:07:12Z</time></wpt>
  <wpt lat="32.4397600" lon="-97.8052200"><time>2026-01-01T09:07:13Z</time></wpt>
  <wpt lat="32.4397600" lon="-97.8052200"><time>2026-01-01T09:07:14Z</time></wpt>
  <wpt lat="32.4397600" lon="-97.8052200"><time>2026-01-01T09:07:15Z</time></wpt>
  <wpt lat="32.4397600" lon="-97.8052200"><time>2026-01-01T09:07:16Z</time></wpt>
  <wpt lat="32.4397600" lon="-97.8052200"><time>2026-01-01T09:07:17Z</time></wpt>
  <wpt lat="32.4397600" lon="-97.8052200"><time>2026-01-01T09:07:18Z</time></wpt>
  <wpt lat="32.4397600" lon="-97.8052200"><time>2026-01-01T09:07:19Z</time></wpt>
  <wpt lat="32.4397600" lon="-97.8052200"><time>2026-01-01T09:07:20Z</time></wpt>
  <wpt lat="32.4397600" lon="-97.8052200"><time>2026-01-01T09:07:21Z</time></wpt>
  <wpt lat="32.4397600" lon="-97.8052200"><time>2026-01-01T09:07:22Z</time></wpt>
  <wpt lat="32.4397600" lon="-97.8052200"><time>2026-01-01T09:07:23Z</time></wpt>
  <wpt lat="32.4397600" lon="-97.8052200"><time>2026-01-01T09:07:24Z</time></wpt>
  <wpt lat="32.4397600" lon="-97.8052200"><time>2026-01-01T09:07:25Z</time></wpt>
  <wpt lat="32.4397600" lon="-97.8052200"><time>2026-01-01T09:07:26Z</time></wpt>
  <wpt lat="32.4397600" lon="-97.8052200"><time>2026-01-01T09:07:27Z</time></wpt>
  <wpt lat="32.4397600" lon="-97.8052200"><time>2026-01-01T09:07:28Z</time></wpt>
  <wpt lat="32.4397600" lon="-97.8052200"><time>2026-01-01T09:07:29Z</time></wpt>
  <wpt lat="32.4397600" lon="-97.8052200"><time>2026-01-01T09:07:30Z</time></wpt>
  <wpt lat="32.4397600" lon="-97.8052200"><time>2026-01-01T09:07:31Z</time></wpt>
  <wpt lat="32.4397600" lon="-97.8052200"><time>2026-01-01T09:07:32Z</time></wpt>
  <wpt lat="32.4397600" lon="-97.8052200"><time>2026-01-01T09:07:33Z</time></wpt>
  <wpt lat="32.4397600" lon="-97.8052200"><time>2026-01-01T09:07:34Z</time></wpt>
  <wpt lat="32.4397600" lon="-97.8052200"><time>2026-01-01T09:07:35Z</time></wpt>
  <wpt lat="32.4397600" lon="-97.8052200"><time>2026-01-01T09:07:36Z</time></wpt>
  <wpt lat="32.4397600" lon="-97.8052200"><time>2026-01-01T09:07:37Z</time></wpt>
  <wpt lat="32.4397600" lon="-97.8052200"><time>2026-01-01T09:07:38Z</time></wpt>
  <wpt lat="32.4397600" lon="-97.8052200"><time>2026-01-01T09:07:39Z</time></wpt>
  <wpt lat="32.4397600" lon="-97.8052200"><time>2026-01-01T09:07:40Z</time></wpt>
  <wpt lat="32.4397600" lon="-97.8052200"><time>2026-01-01T09:07:41Z</time></wpt>
  <wpt lat="32.4397600" lon="-97.8052200"><time>2026-01-01T09:07:42Z</time></wpt>
  <wpt lat="32.4397600" lon="-97.8052200"><time>2026-01-01T09:07:43Z</time></wpt>
  <wpt lat="32.4397600" lon="-97.8052200"><time>2026-01-01T09:07:44Z</time></wpt>
  <wpt lat="32.4397600" lon="-97.8052200"><time>2026-01-01T09:07:45Z</time></wpt>
  <wpt lat="32.4397600" lon="-97.8052200"><time>2026-01-01T09:07:46Z</time></wpt>
  <wpt lat="32.4397600" lon="-97.8052200"><time>2026-01-01T09:07:47Z</time></wpt>
  <wpt lat="32.4397600" lon="-97.8052200"><time>2026-01-01T09:07:48Z</time></wpt>
  <wpt lat="32.4397600" lon="-97.8052200"><time>2026-01-01T09:07:49Z</time></wpt>
  <wpt lat="32.4397600" lon="-97.8052200"><time>2026-01-01T09:07:50Z</time></wpt>
  <wpt lat="32.4397600" lon="-97.8052200"><time>2026-01-01T09:07:51Z</time></wpt>
  <wpt lat="32.4397600" lon="-97.8052200"><time>2026-01-01T09:07:52Z</time></wpt>
  <wpt lat="32.4397600" lon="-97.8052200"><time>2026-01-01T09:07:53Z</time></wpt>
  <wpt lat="32.4397600" lon="-97.8052200"><time>2026-01-01T09:07:54Z</time></wpt>
  <wpt lat="32.4397600" lon="-97.8052200"><time>2026-01-01T09:07:55Z</time></wpt>
  <wpt lat="32.4397600" lon="-97.8052200"><time>2026-01-01T09:07:56Z</time></wpt>
  <wpt lat="32.4397600" lon="-97.8052200"><time>2026-01-01T09:07:57Z</time></wpt>
  <wpt lat="32.4397600" lon="-97.8052200"><time>2026-01-01T09:07:58Z</time></wpt>
  <wpt lat="32.4397600" lon="-97.8052200"><time>2026-01-01T09:07:59Z</time></wpt>
  <wpt lat="32.4397600" lon="-97.8052200"><time>2026-01-01T09:08:00Z</time></wpt>
  <wpt lat="32.4397600" lon="-97.8052200"><time>2026-01-01T09:08:01Z</time></wpt>
  <wpt lat="32.4397600" lon="-97.8052200"><time>2026-01-01T09:08:02Z</time></wpt>
  <wpt lat="32.4397600" lon="-97.8052200"><time>2026-01-01T09:08:03Z</time></wpt>
  <wpt lat="32.4397600" lon="-97.8052200"><time>2026-01-01T09:08:04Z</time></wpt>
  <wpt lat="32.4397600" lon="-97.8052200"><time>2026-01-01T09:08:05Z</time></wpt>
  <wpt lat="32.4397600" lon="-97.8052200"><time>2026-01-01T09:08:06Z</time></wpt>
  <wpt lat="32.4397600" lon="-97.8052200"><time>2026-01-01T09:08:07Z</time></wpt>
  <wpt lat="32.4397600" lon="-97.8052200"><time>2026-01-01T09:08:08Z</time></wpt>
  <wpt lat="32.4397600" lon="-97.8052200"><time>2026-01-01T09:08:09Z</time></wpt>
  <wpt lat="32.4397600" lon="-97.8052200"><time>2026-01-01T09:08:10Z</time></wpt>
  <wpt lat="32.4397600" lon="-97.8052200"><time>2026-01-01T09:08:11Z</time></wpt>
  <wpt lat="32.4397600" lon="-97.8052200"><time>2026-01-01T09:08:12Z</time></wpt>
  <wpt lat="32.4397600" lon="-97.8052200"><time>2026-01-01T09:08:13Z</time></wpt>
  <wpt lat="32.4397600" lon="-97.8052200"><time>2026-01-01T09:08:14Z</time></wpt>
  <wpt lat="32.4397600" lon="-97.8052200"><time>2026-01-01T09:08:15Z</time></wpt>
  <wpt lat="32.4397600" lon="-97.8052200"><time>2026-01-01T09:08:16Z</time></wpt>
  <wpt lat="32.4397600" lon="-97.8052200"><time>2026-01-01T09:08:17Z</time></wpt>
  <wpt lat="32.4397600" lon="-97.8052200"><time>2026-01-01T09:08:18Z</time></wpt>
  <wpt lat="32.4397600" lon="-97.8052200"><time>2026-01-01T09:08:19Z</time></wpt>
  <wpt lat="32.4397600" lon="-97.8052200"><time>2026-01-01T09:08:20Z</time></wpt>
  <wpt lat="32.4397600" lon="-97.8052200"><time>2026-01-01T09:08:21Z</time></wpt>
  <wpt lat="32.4397600" lon="-97.8052200"><time>2026-01-01T09:08:22Z</time></wpt>
  <wpt lat="32.4397600" lon="-97.8052200"><time>2026-01-01T09:08:23Z</time></wpt>
  <wpt lat="32.4397600" lon="-97.8052200"><time>2026-01-01T09:08:24Z</time></wpt>
  <wpt lat="32.4397600" lon="-97.8052200"><time>2026-01-01T09:08:25Z</time></wpt>
  <wpt lat="32.4397600" lon="-97.8052200"><time>2026-01-01T09:08:26Z</time></wpt>
  <wpt lat="32.4397600" lon="-97.8052200"><time>2026-01-01T09:08:27Z</time></wpt>
  <wpt lat="32.4397600" lon="-97.8052200"><time>2026-01-01T09:08:28Z</time></wpt>
  <wpt lat="32.4397600" lon="-97.8052200"><time>2026-01-01T09:08:29Z</time></wpt>
  <wpt lat="32.4397600" lon="-97.8052200"><time>2026-01-01T09:08:30Z</time></wpt>
  <wpt lat="32.4397600" lon="-97.8052200"><time>2026-01-01T09:08:31Z</time></wpt>
  <wpt lat="32.4397600" lon="-97.8052200"><time>2026-01-01T09:08:32Z</time></wpt>
  <wpt lat="32.4397600" lon="-97.8052200"><time>2026-01-01T09:08:33Z</time></wpt>
  <wpt lat="32.4397600" lon="-97.8052200"><time>2026-01-01T09:08:34Z</time></wpt>
  <wpt lat="32.4397600" lon="-97.8052200"><time>2026-01-01T09:08:35Z</time></wpt>
  <wpt lat="32.4397600" lon="-97.8052200"><time>2026-01-01T09:08:36Z</time></wpt>
  <wpt lat="32.4397600" lon="-97.8052200"><time>2026-01-01T09:08:37Z</time></wpt>
  <wpt lat="32.4397600" lon="-97.8052200"><time>2026-01-01T09:08:38Z</time></wpt>
  <wpt lat="32.4397600" lon="-97.8052200"><time>2026-01-01T09:08:39Z</time></wpt>
  <wpt lat="32.4397600" lon="-97.8052200"><time>2026-01-01T09:08:40Z</time></wpt>
  <wpt lat="32.4397600" lon="-97.8052200"><time>2026-01-01T09:08:41Z</time></wpt>
  <wpt lat="32.4397600" lon="-97.8052200"><time>2026-01-01T09:08:42Z</time></wpt>
  <wpt lat="32.4397600" lon="-97.8052200"><time>2026-01-01T09:08:43Z</time></wpt>
  <wpt lat="32.4397600" lon="-97.8052200"><time>2026-01-01T09:08:44Z</time></wpt>
  <wpt lat="32.4397600" lon="-97.8052200"><time>2026-01-01T09:08:45Z</time></wpt>
  <wpt lat="32.4397600" lon="-97.8052200"><time>2026-01-01T09:08:46Z</time></wpt>
  <wpt lat="32.4397600" lon="-97.8052200"><time>2026-01-01T09:08:47Z</time></wpt>
  <wpt lat="32.4397600" lon="-97.8052200"><time>2026-01-01T09:08:48Z</time></wpt>
  <wpt lat="32.4397600" lon="-97.8052200"><time>2026-01-01T09:08:49Z</time></wpt>
  <wpt lat="32.4397600" lon="-97.8052200"><time>2026-01-01T09:08:50Z</time></wpt>
  <wpt lat="32.4397600" lon="-97.8052200"><time>2026-01-01T09:08:51Z</time></wpt>
  <wpt lat="32.4397600" lon="-97.8052200"><time>2026-01-01T09:08:52Z</time></wpt>
  <wpt lat="32.4397600" lon="-97.8052200"><time>2026-01-01T09:08:53Z</time></wpt>
  <wpt lat="32.4397600" lon="-97.8052200"><time>2026-01-01T09:08:54Z</time></wpt>
  <wpt lat="32.4397600" lon="-97.8052200"><time>2026-01-01T09:08:55Z</time></wpt>
  <wpt lat="32.4397600" lon="-97.8052200"><time>2026-01-01T09:08:56Z</time></wpt>
  <wpt lat="32.4397600" lon="-97.8052200"><time>2026-01-01T09:08:57Z</time></wpt>
  <wpt lat="32.4397600" lon="-97.8052200"><time>2026-01-01T09:08:58Z</time></wpt>
  <wpt lat="32.4397600" lon="-97.8052200"><time>2026-01-01T09:08:59Z</time></wpt>
  <wpt lat="32.4397600" lon="-97.8052200"><time>2026-01-01T09:09:00Z</time></wpt>
  <wpt lat="32.4397600" lon="-97.8052200"><time>2026-01-01T09:09:01Z</time></wpt>
  <wpt lat="32.4397600" lon="-97.8052200"><time>2026-01-01T09:09:02Z</time></wpt>
  <wpt lat="32.4397600" lon="-97.8052200"><time>2026-01-01T09:09:03Z</time></wpt>
  <wpt lat="32.4397600" lon="-97.8052200"><time>2026-01-01T09:09:04Z</time></wpt>
  <wpt lat="32.4397600" lon="-97.8052200"><time>2026-01-01T09:09:05Z</time></wpt>
  <wpt lat="32.4397600" lon="-97.8052200"><time>2026-01-01T09:09:06Z</time></wpt>
  <wpt lat="32.4397600" lon="-97.8052200"><time>2026-01-01T09:09:07Z</time></wpt>
  <wpt lat="32.4397600" lon="-97.8052200"><time>2026-01-01T09:09:08Z</time></wpt>
  <wpt lat="32.4397600" lon="-97.8052200"><time>2026-01-01T09:09:09Z</time></wpt>
  <wpt lat="32.4397600" lon="-97.8052200"><time>2026-01-01T09:09:10Z</time></wpt>
  <wpt lat="32.4397600" lon="-97.8052200"><time>2026-01-01T09:09:11Z</time></wpt>
  <wpt lat="32.4397600" lon="-97.8052200"><time>2026-01-01T09:09:12Z</time></wpt>
  <wpt lat="32.4397600" lon="-97.8052200"><time>2026-01-01T09:09:13Z</time></wpt>
  <wpt lat="32.4397600" lon="-97.8052200"><time>2026-01-01T09:09:14Z</time></wpt>
  <wpt lat="32.4397600" lon="-97.8052200"><time>2026-01-01T09:09:15Z</time></wpt>
  <wpt lat="32.4397600" lon="-97.8052200"><time>2026-01-01T09:09:16Z</time></wpt>
  <wpt lat="32.4397600" lon="-97.8052200"><time>2026-01-01T09:09:17Z</time></wpt>
  <wpt lat="32.4397600" lon="-97.8052200"><time>2026-01-01T09:09:18Z</time></wpt>
  <wpt lat="32.4397600" lon="-97.8052200"><time>2026-01-01T09:09:19Z</time></wpt>
  <wpt lat="32.4397600" lon="-97.8052200"><time>2026-01-01T09:09:20Z</time></wpt>
  <wpt lat="32.4397600" lon="-97.8052200"><time>2026-01-01T09:09:21Z</time></wpt>
  <wpt lat="32.4397600" lon="-97.8052200"><time>2026-01-01T09:09:22Z</time></wpt>
  <wpt lat="32.4397600" lon="-97.8052200"><time>2026-01-01T09:09:23Z</time></wpt>
  <wpt lat="32.4397600" lon="-97.8052200"><time>2026-01-01T09:09:24Z</time></wpt>
  <wpt lat="32.4397600" lon="-97.8052200"><time>2026-01-01T09:09:25Z</time></wpt>
  <wpt lat="32.4397600" lon="-97.8052200"><time>2026-01-01T09:09:26Z</time></wpt>
  <wpt lat="32.4397600" lon="-97.8052200"><time>2026-01-01T09:09:27Z</time></wpt>
  <wpt lat="32.4397600" lon="-97.8052200"><time>2026-01-01T09:09:28Z</time></wpt>
  <wpt lat="32.4397600" lon="-97.8052200"><time>2026-01-01T09:09:29Z</time></wpt>
  <wpt lat="32.4397600" lon="-97.8052200"><time>2026-01-01T09:09:30Z</time></wpt>
  <wpt lat="32.4397600" lon="-97.8052200"><time>2026-01-01T09:09:31Z</time></wpt>
  <wpt lat="32.4397600" lon="-97.8052200"><time>2026-01-01T09:09:32Z</time></wpt>
  <wpt lat="32.4397600" lon="-97.8052200"><time>2026-01-01T09:09:33Z</time></wpt>
  <wpt lat="32.4397600" lon="-97.8052200"><time>2026-01-01T09:09:34Z</time></wpt>
  <wpt lat="32.4397600" lon="-97.8052200"><time>2026-01-01T09:09:35Z</time></wpt>
  <wpt lat="32.4397600" lon="-97.8052200"><time>2026-01-01T09:09:36Z</time></wpt>
  <wpt lat="32.4397600" lon="-97.8052200"><time>2026-01-01T09:09:37Z</time></wpt>
  <wpt lat="32.4397600" lon="-97.8052200"><time>2026-01-01T09:09:38Z</time></wpt>
  <wpt lat="32.4397600" lon="-97.8052200"><time>2026-01-01T09:09:39Z</time></wpt>
  <wpt lat="32.4397600" lon="-97.8052200"><time>2026-01-01T09:09:40Z</time></wpt>
  <wpt lat="32.4397600" lon="-97.8052200"><time>2026-01-01T09:09:41Z</time></wpt>
  <wpt lat="32.4397600" lon="-97.8052200"><time>2026-01-01T09:09:42Z</time></wpt>
  <wpt lat="32.4397600" lon="-97.8052200"><time>2026-01-01T09:09:43Z</time></wpt>
  <wpt lat="32.4397600" lon="-97.8052200"><time>2026-01-01T09:09:44Z</time></wpt>
  <wpt lat="32.4397600" lon="-97.8052200"><time>2026-01-01T09:09:45Z</time></wpt>
  <wpt lat="32.4397600" lon="-97.8052200"><time>2026-01-01T09:09:46Z</time></wpt>
  <wpt lat="32.4397600" lon="-97.8052200"><time>2026-01-01T09:09:47Z</time></wpt>
  <wpt lat="32.4397600" lon="-97.8052200"><time>2026-01-01T09:09:48Z</time></wpt>
  <wpt lat="32.4397600" lon="-97.8052200"><time>2026-01-01T09:09:49Z</time></wpt>
  <wpt lat="32.4397600" lon="-97.8052200"><time>2026-01-01T09:09:50Z</time></wpt>
  <wpt lat="32.4397600" lon="-97.8052200"><time>2026-01-01T09:09:51Z</time></wpt>
  <wpt lat="32.4397600" lon="-97.8052200"><time>2026-01-01T09:09:52Z</time></wpt>
  <wpt lat="32.4397600" lon="-97.8052200"><time>2026-01-01T09:09:53Z</time></wpt>
  <wpt lat="32.4397600" lon="-97.8052200"><time>2026-01-01T09:09:54Z</time></wpt>
  <wpt lat="32.4397600" lon="-97.8052200"><time>2026-01-01T09:09:55Z</time></wpt>
  <wpt lat="32.4397600" lon="-97.8052200"><time>2026-01-01T09:09:56Z</time></wpt>
  <wpt lat="32.4397600" lon="-97.8052200"><time>2026-01-01T09:09:57Z</time></wpt>
  <wpt lat="32.4397600" lon="-97.8052200"><time>2026-01-01T09:09:58Z</time></wpt>
  <wpt lat="32.4397600" lon="-97.8052200"><time>2026-01-01T09:09:59Z</time></wpt>
  <wpt lat="32.4397600" lon="-97.8052200"><time>2026-01-01T09:10:00Z</time></wpt>
  <wpt lat="32.4397600" lon="-97.8052200"><time>2026-01-01T09:10:01Z</time></wpt>
  <wpt lat="32.4397600" lon="-97.8052200"><time>2026-01-01T09:10:02Z</time></wpt>
  <wpt lat="32.4397600" lon="-97.8052200"><time>2026-01-01T09:10:03Z</time></wpt>
  <wpt lat="32.4397600" lon="-97.8052200"><time>2026-01-01T09:10:04Z</time></wpt>
  <wpt lat="32.4397600" lon="-97.8052200"><time>2026-01-01T09:10:05Z</time></wpt>
  <wpt lat="32.4397600" lon="-97.8052200"><time>2026-01-01T09:10:06Z</time></wpt>
  <wpt lat="32.4397600" lon="-97.8052200"><time>2026-01-01T09:10:07Z</time></wpt>
  <wpt lat="32.4397600" lon="-97.8052200"><time>2026-01-01T09:10:08Z</time></wpt>
  <wpt lat="32.4397600" lon="-97.8052200"><time>2026-01-01T09:10:09Z</time></wpt>
  <wpt lat="32.4397600" lon="-97.8052200"><time>2026-01-01T09:10:10Z</time></wpt>
  <wpt lat="32.4397600" lon="-97.8052200"><time>2026-01-01T09:10:11Z</time></wpt>
  <wpt lat="32.4397600" lon="-97.8052200"><time>2026-01-01T09:10:12Z</time></wpt>
  <wpt lat="32.4397600" lon="-97.8052200"><time>2026-01-01T09:10:13Z</time></wpt>
  <wpt lat="32.4397600" lon="-97.8052200"><time>2026-01-01T09:10:14Z</time></wpt>
  <wpt lat="32.4397600" lon="-97.8052200"><time>2026-01-01T09:10:15Z</time></wpt>
  <wpt lat="32.4397600" lon="-97.8052200"><time>2026-01-01T09:10:16Z</time></wpt>
  <wpt lat="32.4397600" lon="-97.8052200"><time>2026-01-01T09:10:17Z</time></wpt>
  <wpt lat="32.4397600" lon="-97.8052200"><time>2026-01-01T09:10:18Z</time></wpt>
  <wpt lat="32.4397600" lon="-97.8052200"><time>2026-01-01T09:10:19Z</time></wpt>
  <wpt lat="32.4397600" lon="-97.8052200"><time>2026-01-01T09:10:20Z</time></wpt>
  <wpt lat="32.4397600" lon="-97.8052200"><time>2026-01-01T09:10:21Z</time></wpt>
  <wpt lat="32.4397600" lon="-97.8052200"><time>2026-01-01T09:10:22Z</time></wpt>
  <wpt lat="32.4397600" lon="-97.8052200"><time>2026-01-01T09:10:23Z</time></wpt>
  <wpt lat="32.4397600" lon="-97.8052200"><time>2026-01-01T09:10:24Z</time></wpt>
  <wpt lat="32.4397600" lon="-97.8052200"><time>2026-01-01T09:10:25Z</time></wpt>
  <wpt lat="32.4397600" lon="-97.8052200"><time>2026-01-01T09:10:26Z</time></wpt>
  <wpt lat="32.4397600" lon="-97.8052200"><time>2026-01-01T09:10:27Z</time></wpt>
  <wpt lat="32.4397600" lon="-97.8052200"><time>2026-01-01T09:10:28Z</time></wpt>
  <wpt lat="32.4397600" lon="-97.8052200"><time>2026-01-01T09:10:29Z</time></wpt>
  <wpt lat="32.4397600" lon="-97.8052200"><time>2026-01-01T09:10:30Z</time></wpt>
  <wpt lat="32.4397600" lon="-97.8052200"><time>2026-01-01T09:10:31Z</time></wpt>
  <wpt lat="32.4397600" lon="-97.8052200"><time>2026-01-01T09:10:32Z</time></wpt>
  <wpt lat="32.4397600" lon="-97.8052200"><time>2026-01-01T09:10:33Z</time></wpt>
  <wpt lat="32.4397600" lon="-97.8052200"><time>2026-01-01T09:10:34Z</time></wpt>
  <wpt lat="32.4397600" lon="-97.8052200"><time>2026-01-01T09:10:35Z</time></wpt>
  <wpt lat="32.4397600" lon="-97.8052200"><time>2026-01-01T09:10:36Z</time></wpt>
  <wpt lat="32.4397600" lon="-97.8052200"><time>2026-01-01T09:10:37Z</time></wpt>
  <wpt lat="32.4397600" lon="-97.8052200"><time>2026-01-01T09:10:38Z</time></wpt>
  <wpt lat="32.4397600" lon="-97.8052200"><time>2026-01-01T09:10:39Z</time></wpt>
  <wpt lat="32.4397600" lon="-97.8052200"><time>2026-01-01T09:10:40Z</time></wpt>
  <wpt lat="32.4397600" lon="-97.8052200"><time>2026-01-01T09:10:41Z</time></wpt>
  <wpt lat="32.4397600" lon="-97.8052200"><time>2026-01-01T09:10:42Z</time></wpt>
  <wpt lat="32.4397600" lon="-97.8052200"><time>2026-01-01T09:10:43Z</time></wpt>
  <wpt lat="32.4397600" lon="-97.8052200"><time>2026-01-01T09:10:44Z</time></wpt>
  <wpt lat="32.4397600" lon="-97.8052200"><time>2026-01-01T09:10:45Z</time></wpt>
  <wpt lat="32.4397600" lon="-97.8052200"><time>2026-01-01T09:10:46Z</time></wpt>
  <wpt lat="32.4397600" lon="-97.8052200"><time>2026-01-01T09:10:47Z</time></wpt>
  <wpt lat="32.4397600" lon="-97.8052200"><time>2026-01-01T09:10:48Z</time></wpt>
  <wpt lat="32.4397600" lon="-97.8052200"><time>2026-01-01T09:10:49Z</time></wpt>
  <wpt lat="32.4397600" lon="-97.8052200"><time>2026-01-01T09:10:50Z</time></wpt>
  <wpt lat="32.4397600" lon="-97.8052200"><time>2026-01-01T09:10:51Z</time></wpt>
  <wpt lat="32.4397600" lon="-97.8052200"><time>2026-01-01T09:10:52Z</time></wpt>
  <wpt lat="32.4397600" lon="-97.8052200"><time>2026-01-01T09:10:53Z</time></wpt>
  <wpt lat="32.4397600" lon="-97.8052200"><time>2026-01-01T09:10:54Z</time></wpt>
  <wpt lat="32.4397600" lon="-97.8052200"><time>2026-01-01T09:10:55Z</time></wpt>
  <wpt lat="32.4397600" lon="-97.8052200"><time>2026-01-01T09:10:56Z</time></wpt>
  <wpt lat="32.4397600" lon="-97.8052200"><time>2026-01-01T09:10:57Z</time></wpt>
  <wpt lat="32.4397600" lon="-97.8052200"><time>2026-01-01T09:10:58Z</time></wpt>
  <wpt lat="32.4397600" lon="-97.8052200"><time>2026-01-01T09:10:59Z</time></wpt>
  <wpt lat="32.4397600" lon="-97.8052200"><time>2026-01-01T09:11:00Z</time></wpt>
  <wpt lat="32.4397600" lon="-97.8052200"><time>2026-01-01T09:11:01Z</time></wpt>
  <wpt lat="32.4397600" lon="-97.8052200"><time>2026-01-01T09:11:02Z</time></wpt>
  <wpt lat="32.4397600" lon="-97.8052200"><time>2026-01-01T09:11:03Z</time></wpt>
  <wpt lat="32.4397600" lon="-97.8052200"><time>2026-01-01T09:11:04Z</time></wpt>
  <wpt lat="32.4397600" lon="-97.8052200"><time>2026-01-01T09:11:05Z</time></wpt>
  <wpt lat="32.4397600" lon="-97.8052200"><time>2026-01-01T09:11:06Z</time></wpt>
  <wpt lat="32.4397600" lon="-97.8052200"><time>2026-01-01T09:11:07Z</time></wpt>
  <wpt lat="32.4397600" lon="-97.8052200"><time>2026-01-01T09:11:08Z</time></wpt>
  <wpt lat="32.4397600" lon="-97.8052200"><time>2026-01-01T09:11:09Z</time></wpt>
  <wpt lat="32.4397600" lon="-97.8052200"><time>2026-01-01T09:11:10Z</time></wpt>
  <wpt lat="32.4397600" lon="-97.8052200"><time>2026-01-01T09:11:11Z</time></wpt>
  <wpt lat="32.4397600" lon="-97.8052200"><time>2026-01-01T09:11:12Z</time></wpt>
  <wpt lat="32.4397600" lon="-97.8052200"><time>2026-01-01T09:11:13Z</time></wpt>
  <wpt lat="32.4397600" lon="-97.8052200"><time>2026-01-01T09:11:14Z</time></wpt>
  <wpt lat="32.4397600" lon="-97.8052200"><time>2026-01-01T09:11:15Z</time></wpt>
  <wpt lat="32.4397600" lon="-97.8052200"><time>2026-01-01T09:11:16Z</time></wpt>
  <wpt lat="32.4397600" lon="-97.8052200"><time>2026-01-01T09:11:17Z</time></wpt>
  <wpt lat="32.4397600" lon="-97.8052200"><time>2026-01-01T09:11:18Z</time></wpt>
  <wpt lat="32.4397600" lon="-97.8052200"><time>2026-01-01T09:11:19Z</time></wpt>
  <wpt lat="32.4397600" lon="-97.8052200"><time>2026-01-01T09:11:20Z</time></wpt>
  <wpt lat="32.4397600" lon="-97.8052200"><time>2026-01-01T09:11:21Z</time></wpt>
  <wpt lat="32.4397600" lon="-97.8052200"><time>2026-01-01T09:11:22Z</time></wpt>
  <wpt lat="32.4397600" lon="-97.8052200"><time>2026-01-01T09:11:23Z</time></wpt>
  <wpt lat="32.4397600" lon="-97.8052200"><time>2026-01-01T09:11:24Z</time></wpt>
  <wpt lat="32.4397600" lon="-97.8052200"><time>2026-01-01T09:11:25Z</time></wpt>
  <wpt lat="32.4397600" lon="-97.8052200"><time>2026-01-01T09:11:26Z</time></wpt>
  <wpt lat="32.4397600" lon="-97.8052200"><time>2026-01-01T09:11:27Z</time></wpt>
  <wpt lat="32.4397600" lon="-97.8052200"><time>2026-01-01T09:11:28Z</time></wpt>
  <wpt lat="32.4397600" lon="-97.8052200"><time>2026-01-01T09:11:29Z</time></wpt>
  <wpt lat="32.4397600" lon="-97.8052200"><time>2026-01-01T09:11:30Z</time></wpt>
  <wpt lat="32.4397600" lon="-97.8052200"><time>2026-01-01T09:11:31Z</time></wpt>
  <wpt lat="32.4397600" lon="-97.8052200"><time>2026-01-01T09:11:32Z</time></wpt>
  <wpt lat="32.4397600" lon="-97.8052200"><time>2026-01-01T09:11:33Z</time></wpt>
  <wpt lat="32.4397600" lon="-97.8052200"><time>2026-01-01T09:11:34Z</time></wpt>
  <wpt lat="32.4397600" lon="-97.8052200"><time>2026-01-01T09:11:35Z</time></wpt>
  <wpt lat="32.4397600" lon="-97.8052200"><time>2026-01-01T09:11:36Z</time></wpt>
  <wpt lat="32.4397600" lon="-97.8052200"><time>2026-01-01T09:11:37Z</time></wpt>
  <wpt lat="32.4397600" lon="-97.8052200"><time>2026-01-01T09:11:38Z</time></wpt>
  <wpt lat="32.4397600" lon="-97.8052200"><time>2026-01-01T09:11:39Z</time></wpt>
  <wpt lat="32.4397600" lon="-97.8052200"><time>2026-01-01T09:11:40Z</time></wpt>
  <wpt lat="32.4397600" lon="-97.8052200"><time>2026-01-01T09:11:41Z</time></wpt>
  <wpt lat="32.4397600" lon="-97.8052200"><time>2026-01-01T09:11:42Z</time></wpt>
  <wpt lat="32.4397600" lon="-97.8052200"><time>2026-01-01T09:11:43Z</time></wpt>
  <wpt lat="32.4397600" lon="-97.8052200"><time>2026-01-01T09:11:44Z</time></wpt>
  <wpt lat="32.4397600" lon="-97.8052200"><time>2026-01-01T09:11:45Z</time></wpt>
  <wpt lat="32.4397600" lon="-97.8052200"><time>2026-01-01T09:11:46Z</time></wpt>
  <wpt lat="32.4397600" lon="-97.8052200"><time>2026-01-01T09:11:47Z</time></wpt>
  <wpt lat="32.4397600" lon="-97.8052200"><time>2026-01-01T09:11:48Z</time></wpt>
  <wpt lat="32.4397600" lon="-97.8052200"><time>2026-01-01T09:11:49Z</time></wpt>
  <wpt lat="32.4397600" lon="-97.8052200"><time>2026-01-01T09:11:50Z</time></wpt>
  <wpt lat="32.4397600" lon="-97.8052200"><time>2026-01-01T09:11:51Z</time></wpt>
  <wpt lat="32.4397600" lon="-97.8052200"><time>2026-01-01T09:11:52Z</time></wpt>
  <wpt lat="32.4397600" lon="-97.8052200"><time>2026-01-01T09:11:53Z</time></wpt>
  <wpt lat="32.4397600" lon="-97.8052200"><time>2026-01-01T09:11:54Z</time></wpt>
  <wpt lat="32.4397600" lon="-97.8052200"><time>2026-01-01T09:11:55Z</time></wpt>
  <wpt lat="32.4397600" lon="-97.8052200"><time>2026-01-01T09:11:56Z</time></wpt>
  <wpt lat="32.4397600" lon="-97.8052200"><time>2026-01-01T09:11:57Z</time></wpt>
  <wpt lat="32.4397600" lon="-97.8052200"><time>2026-01-01T09:11:58Z</time></wpt>
  <wpt lat="32.4397600" lon="-97.8052200"><time>2026-01-01T09:11:59Z</time></wpt>
  <wpt lat="32.4397600" lon="-97.8052200"><time>2026-01-01T09:12:00Z</time></wpt>
  <wpt lat="32.4397600" lon="-97.8052200"><time>2026-01-01T09:12:01Z</time></wpt>
  <wpt lat="32.4397600" lon="-97.8052200"><time>2026-01-01T09:12:02Z</time></wpt>
  <wpt lat="32.4397600" lon="-97.8052200"><time>2026-01-01T09:12:03Z</time></wpt>
  <wpt lat="32.4397600" lon="-97.8052200"><time>2026-01-01T09:12:04Z</time></wpt>
  <wpt lat="32.4397600" lon="-97.8052200"><time>2026-01-01T09:12:05Z</time></wpt>
  <wpt lat="32.4397600" lon="-97.8052200"><time>2026-01-01T09:12:06Z</time></wpt>
  <wpt lat="32.4397600" lon="-97.8052200"><time>2026-01-01T09:12:07Z</time></wpt>
  <wpt lat="32.4397600" lon="-97.8052200"><time>2026-01-01T09:12:08Z</time></wpt>
  <wpt lat="32.4397600" lon="-97.8052200"><time>2026-01-01T09:12:09Z</time></wpt>
  <wpt lat="32.4397600" lon="-97.8052200"><time>2026-01-01T09:12:10Z</time></wpt>
  <wpt lat="32.4397600" lon="-97.8052200"><time>2026-01-01T09:12:11Z</time></wpt>
  <wpt lat="32.4397600" lon="-97.8052200"><time>2026-01-01T09:12:12Z</time></wpt>
  <wpt lat="32.4397600" lon="-97.8052200"><time>2026-01-01T09:12:13Z</time></wpt>
  <wpt lat="32.4397600" lon="-97.8052200"><time>2026-01-01T09:12:14Z</time></wpt>
  <wpt lat="32.4397600" lon="-97.8052200"><time>2026-01-01T09:12:15Z</time></wpt>
  <wpt lat="32.4397600" lon="-97.8052200"><time>2026-01-01T09:12:16Z</time></wpt>
  <wpt lat="32.4397600" lon="-97.8052200"><time>2026-01-01T09:12:17Z</time></wpt>
  <wpt lat="32.4397600" lon="-97.8052200"><time>2026-01-01T09:12:18Z</time></wpt>
  <wpt lat="32.4397600" lon="-97.8052200"><time>2026-01-01T09:12:19Z</time></wpt>
  <wpt lat="32.4397600" lon="-97.8052200"><time>2026-01-01T09:12:20Z</time></wpt>
  <wpt lat="32.4397600" lon="-97.8052200"><time>2026-01-01T09:12:21Z</time></wpt>
  <wpt lat="32.4397600" lon="-97.8052200"><time>2026-01-01T09:12:22Z</time></wpt>
  <wpt lat="32.4397600" lon="-97.8052200"><time>2026-01-01T09:12:23Z</time></wpt>
  <wpt lat="32.4397600" lon="-97.8052200"><time>2026-01-01T09:12:24Z</time></wpt>
  <wpt lat="32.4397600" lon="-97.8052200"><time>2026-01-01T09:12:25Z</time></wpt>
  <wpt lat="32.4397600" lon="-97.8052200"><time>2026-01-01T09:12:26Z</time></wpt>
  <wpt lat="32.4397600" lon="-97.8052200"><time>2026-01-01T09:12:27Z</time></wpt>
  <wpt lat="32.4397600" lon="-97.8052200"><time>2026-01-01T09:12:28Z</time></wpt>
  <wpt lat="32.4397600" lon="-97.8052200"><time>2026-01-01T09:12:29Z</time></wpt>
  <wpt lat="32.4397600" lon="-97.8052200"><time>2026-01-01T09:12:30Z</time></wpt>
  <wpt lat="32.4397600" lon="-97.8052200"><time>2026-01-01T09:12:31Z</time></wpt>
  <wpt lat="32.4397600" lon="-97.8052200"><time>2026-01-01T09:12:32Z</time></wpt>
  <wpt lat="32.4397600" lon="-97.8052200"><time>2026-01-01T09:12:33Z</time></wpt>
  <wpt lat="32.4397600" lon="-97.8052200"><time>2026-01-01T09:12:34Z</time></wpt>
  <wpt lat="32.4397600" lon="-97.8052200"><time>2026-01-01T09:12:35Z</time></wpt>
  <wpt lat="32.4397600" lon="-97.8052200"><time>2026-01-01T09:12:36Z</time></wpt>
  <wpt lat="32.4397600" lon="-97.8052200"><time>2026-01-01T09:12:37Z</time></wpt>
  <wpt lat="32.4397600" lon="-97.8052200"><time>2026-01-01T09:12:38Z</time></wpt>
  <wpt lat="32.4397600" lon="-97.8052200"><time>2026-01-01T09:12:39Z</time></wpt>
  <wpt lat="32.4397600" lon="-97.8052200"><time>2026-01-01T09:12:40Z</time></wpt>
  <wpt lat="32.4397600" lon="-97.8052200"><time>2026-01-01T09:12:41Z</time></wpt>
  <wpt lat="32.4397600" lon="-97.8052200"><time>2026-01-01T09:12:42Z</time></wpt>
  <wpt lat="32.4397600" lon="-97.8052200"><time>2026-01-01T09:12:43Z</time></wpt>
  <wpt lat="32.4397600" lon="-97.8052200"><time>2026-01-01T09:12:44Z</time></wpt>
  <wpt lat="32.4397600" lon="-97.8052200"><time>2026-01-01T09:12:45Z</time></wpt>
  <wpt lat="32.4397600" lon="-97.8052200"><time>2026-01-01T09:12:46Z</time></wpt>
  <wpt lat="32.4397600" lon="-97.8052200"><time>2026-01-01T09:12:47Z</time></wpt>
  <wpt lat="32.4397600" lon="-97.8052200"><time>2026-01-01T09:12:48Z</time></wpt>
  <wpt lat="32.4397600" lon="-97.8052200"><time>2026-01-01T09:12:49Z</time></wpt>
  <wpt lat="32.4397600" lon="-97.8052200"><time>2026-01-01T09:12:50Z</time></wpt>
  <wpt lat="32.4397600" lon="-97.8052200"><time>2026-01-01T09:12:51Z</time></wpt>
  <wpt lat="32.4397600" lon="-97.8052200"><time>2026-01-01T09:12:52Z</time></wpt>
  <wpt lat="32.4397600" lon="-97.8052200"><time>2026-01-01T09:12:53Z</time></wpt>
  <wpt lat="32.4397600" lon="-97.8052200"><time>2026-01-01T09:12:54Z</time></wpt>
  <wpt lat="32.4397600" lon="-97.8052200"><time>2026-01-01T09:12:55Z</time></wpt>
  <wpt lat="32.4397600" lon="-97.8052200"><time>2026-01-01T09:12:56Z</time></wpt>
  <wpt lat="32.4397600" lon="-97.8052200"><time>2026-01-01T09:12:57Z</time></wpt>
  <wpt lat="32.4397600" lon="-97.8052200"><time>2026-01-01T09:12:58Z</time></wpt>
  <wpt lat="32.4397600" lon="-97.8052200"><time>2026-01-01T09:12:59Z</time></wpt>
  <wpt lat="32.4397600" lon="-97.8052200"><time>2026-01-01T09:13:00Z</time></wpt>
  <wpt lat="32.4397600" lon="-97.8052200"><time>2026-01-01T09:13:01Z</time></wpt>
  <wpt lat="32.4397600" lon="-97.8052200"><time>2026-01-01T09:13:02Z</time></wpt>
  <wpt lat="32.4397600" lon="-97.8052200"><time>2026-01-01T09:13:03Z</time></wpt>
  <wpt lat="32.4397600" lon="-97.8052200"><time>2026-01-01T09:13:04Z</time></wpt>
  <wpt lat="32.4397600" lon="-97.8052200"><time>2026-01-01T09:13:05Z</time></wpt>
  <wpt lat="32.4397600" lon="-97.8052200"><time>2026-01-01T09:13:06Z</time></wpt>
  <wpt lat="32.4397600" lon="-97.8052200"><time>2026-01-01T09:13:07Z</time></wpt>
  <wpt lat="32.4397600" lon="-97.8052200"><time>2026-01-01T09:13:08Z</time></wpt>
  <wpt lat="32.4397600" lon="-97.8052200"><time>2026-01-01T09:13:09Z</time></wpt>
  <wpt lat="32.4397600" lon="-97.8052200"><time>2026-01-01T09:13:10Z</time></wpt>
  <wpt lat="32.4397600" lon="-97.8052200"><time>2026-01-01T09:13:11Z</time></wpt>
  <wpt lat="32.4397600" lon="-97.8052200"><time>2026-01-01T09:13:12Z</time></wpt>
  <wpt lat="32.4397600" lon="-97.8052200"><time>2026-01-01T09:13:13Z</time></wpt>
  <wpt lat="32.4397600" lon="-97.8052200"><time>2026-01-01T09:13:14Z</time></wpt>
  <wpt lat="32.4397600" lon="-97.8052200"><time>2026-01-01T09:13:15Z</time></wpt>
  <wpt lat="32.4397600" lon="-97.8052200"><time>2026-01-01T09:13:16Z</time></wpt>
  <wpt lat="32.4397600" lon="-97.8052200"><time>2026-01-01T09:13:17Z</time></wpt>
  <wpt lat="32.4397600" lon="-97.8052200"><time>2026-01-01T09:13:18Z</time></wpt>
  <wpt lat="32.4397600" lon="-97.8052200"><time>2026-01-01T09:13:19Z</time></wpt>
  <wpt lat="32.4397600" lon="-97.8052200"><time>2026-01-01T09:13:20Z</time></wpt>
  <wpt lat="32.4397600" lon="-97.8052200"><time>2026-01-01T09:13:21Z</time></wpt>
  <wpt lat="32.4397600" lon="-97.8052200"><time>2026-01-01T09:13:22Z</time></wpt>
  <wpt lat="32.4397600" lon="-97.8052200"><time>2026-01-01T09:13:23Z</time></wpt>
  <wpt lat="32.4397600" lon="-97.8052200"><time>2026-01-01T09:13:24Z</time></wpt>
  <wpt lat="32.4397600" lon="-97.8052200"><time>2026-01-01T09:13:25Z</time></wpt>
  <wpt lat="32.4397600" lon="-97.8052200"><time>2026-01-01T09:13:26Z</time></wpt>
  <wpt lat="32.4397600" lon="-97.8052200"><time>2026-01-01T09:13:27Z</time></wpt>
  <wpt lat="32.4397600" lon="-97.8052200"><time>2026-01-01T09:13:28Z</time></wpt>
  <wpt lat="32.4397600" lon="-97.8052200"><time>2026-01-01T09:13:29Z</time></wpt>
  <wpt lat="32.4397600" lon="-97.8052200"><time>2026-01-01T09:13:30Z</time></wpt>
  <wpt lat="32.4397600" lon="-97.8052200"><time>2026-01-01T09:13:31Z</time></wpt>
  <wpt lat="32.4397600" lon="-97.8052200"><time>2026-01-01T09:13:32Z</time></wpt>
  <wpt lat="32.4397600" lon="-97.8052200"><time>2026-01-01T09:13:33Z</time></wpt>
  <wpt lat="32.4397600" lon="-97.8052200"><time>2026-01-01T09:13:34Z</time></wpt>
  <wpt lat="32.4397600" lon="-97.8052200"><time>2026-01-01T09:13:35Z</time></wpt>
  <wpt lat="32.4397600" lon="-97.8052200"><time>2026-01-01T09:13:36Z</time></wpt>
  <wpt lat="32.4397600" lon="-97.8052200"><time>2026-01-01T09:13:37Z</time></wpt>
  <wpt lat="32.4397600" lon="-97.8052200"><time>2026-01-01T09:13:38Z</time></wpt>
  <wpt lat="32.4397600" lon="-97.8052200"><time>2026-01-01T09:13:39Z</time></wpt>
  <wpt lat="32.4397600" lon="-97.8052200"><time>2026-01-01T09:13:40Z</time></wpt>
  <wpt lat="32.4397600" lon="-97.8052200"><time>2026-01-01T09:13:41Z</time></wpt>
  <wpt lat="32.4397600" lon="-97.8052200"><time>2026-01-01T09:13:42Z</time></wpt>
  <wpt lat="32.4397600" lon="-97.8052200"><time>2026-01-01T09:13:43Z</time></wpt>
  <wpt lat="32.4397600" lon="-97.8052200"><time>2026-01-01T09:13:44Z</time></wpt>
  <wpt lat="32.4397600" lon="-97.8052200"><time>2026-01-01T09:13:45Z</time></wpt>
  <wpt lat="32.4397600" lon="-97.8052200"><time>2026-01-01T09:13:46Z</time></wpt>
  <wpt lat="32.4397600" lon="-97.8052200"><time>2026-01-01T09:13:47Z</time></wpt>
  <wpt lat="32.4397600" lon="-97.8052200"><time>2026-01-01T09:13:48Z</time></wpt>
  <wpt lat="32.4397600" lon="-97.8052200"><time>2026-01-01T09:13:49Z</time></wpt>
  <wpt lat="32.4397600" lon="-97.8052200"><time>2026-01-01T09:13:50Z</time></wpt>
  <wpt lat="32.4397600" lon="-97.8052200"><time>2026-01-01T09:13:51Z</time></wpt>
  <wpt lat="32.4397600" lon="-97.8052200"><time>2026-01-01T09:13:52Z</time></wpt>
  <wpt lat="32.4397600" lon="-97.8052200"><time>2026-01-01T09:13:53Z</time></wpt>
  <wpt lat="32.4397600" lon="-97.8052200"><time>2026-01-01T09:13:54Z</time></wpt>
  <wpt lat="32.4397600" lon="-97.8052200"><time>2026-01-01T09:13:55Z</time></wpt>
  <wpt lat="32.4397600" lon="-97.8052200"><time>2026-01-01T09:13:56Z</time></wpt>
  <wpt lat="32.4397600" lon="-97.8052200"><time>2026-01-01T09:13:57Z</time></wpt>
  <wpt lat="32.4397600" lon="-97.8052200"><time>2026-01-01T09:13:58Z</time></wpt>
  <wpt lat="32.4397600" lon="-97.8052200"><time>2026-01-01T09:13:59Z</time></wpt>
  <wpt lat="32.4397600" lon="-97.8052200"><time>2026-01-01T09:14:00Z</time></wpt>
  <wpt lat="32.4397600" lon="-97.8052200"><time>2026-01-01T09:14:01Z</time></wpt>
  <wpt lat="32.4397600" lon="-97.8052200"><time>2026-01-01T09:14:02Z</time></wpt>
  <wpt lat="32.4397600" lon="-97.8052200"><time>2026-01-01T09:14:03Z</time></wpt>
  <wpt lat="32.4397600" lon="-97.8052200"><time>2026-01-01T09:14:04Z</time></wpt>
  <wpt lat="32.4397600" lon="-97.8052200"><time>2026-01-01T09:14:05Z</time></wpt>
  <wpt lat="32.4397600" lon="-97.8052200"><time>2026-01-01T09:14:06Z</time></wpt>
  <wpt lat="32.4397600" lon="-97.8052200"><time>2026-01-01T09:14:07Z</time></wpt>
  <wpt lat="32.4397600" lon="-97.8052200"><time>2026-01-01T09:14:08Z</time></wpt>
  <wpt lat="32.4397600" lon="-97.8052200"><time>2026-01-01T09:14:09Z</time></wpt>
  <wpt lat="32.4397600" lon="-97.8052200"><time>2026-01-01T09:14:10Z</time></wpt>
  <wpt lat="32.4397600" lon="-97.8052200"><time>2026-01-01T09:14:11Z</time></wpt>
  <wpt lat="32.4397600" lon="-97.8052200"><time>2026-01-01T09:14:12Z</time></wpt>
  <wpt lat="32.4397600" lon="-97.8052200"><time>2026-01-01T09:14:13Z</time></wpt>
  <wpt lat="32.4397600" lon="-97.8052200"><time>2026-01-01T09:14:14Z</time></wpt>
  <wpt lat="32.4397600" lon="-97.8052200"><time>2026-01-01T09:14:15Z</time></wpt>
  <wpt lat="32.4397600" lon="-97.8052200"><time>2026-01-01T09:14:16Z</time></wpt>
  <wpt lat="32.4397600" lon="-97.8052200"><time>2026-01-01T09:14:17Z</time></wpt>
  <wpt lat="32.4397600" lon="-97.8052200"><time>2026-01-01T09:14:18Z</time></wpt>
  <wpt lat="32.4397600" lon="-97.8052200"><time>2026-01-01T09:14:19Z</time></wpt>
  <wpt lat="32.4397600" lon="-97.8052200"><time>2026-01-01T09:14:20Z</time></wpt>
  <wpt lat="32.4397600" lon="-97.8052200"><time>2026-01-01T09:14:21Z</time></wpt>
  <wpt lat="32.4397600" lon="-97.8052200"><time>2026-01-01T09:14:22Z</time></wpt>
  <wpt lat="32.4397600" lon="-97.8052200"><time>2026-01-01T09:14:23Z</time></wpt>
  <wpt lat="32.4397600" lon="-97.8052200"><time>2026-01-01T09:14:24Z</time></wpt>
  <wpt lat="32.4397600" lon="-97.8052200"><time>2026-01-01T09:14:25Z</time></wpt>
  <wpt lat="32.4397600" lon="-97.8052200"><time>2026-01-01T09:14:26Z</time></wpt>
  <wpt lat="32.4397600" lon="-97.8052200"><time>2026-01-01T09:14:27Z</time></wpt>
  <wpt lat="32.4397600" lon="-97.8052200"><time>2026-01-01T09:14:28Z</time></wpt>
  <wpt lat="32.4397600" lon="-97.8052200"><time>2026-01-01T09:14:29Z</time></wpt>
  <wpt lat="32.4397600" lon="-97.8052200"><time>2026-01-01T09:14:30Z</time></wpt>
  <wpt lat="32.4397600" lon="-97.8052200"><time>2026-01-01T09:14:31Z</time></wpt>
  <wpt lat="32.4397600" lon="-97.8052200"><time>2026-01-01T09:14:32Z</time></wpt>
  <wpt lat="32.4397600" lon="-97.8052200"><time>2026-01-01T09:14:33Z</time></wpt>
  <wpt lat="32.4397600" lon="-97.8052200"><time>2026-01-01T09:14:34Z</time></wpt>
  <wpt lat="32.4397600" lon="-97.8052200"><time>2026-01-01T09:14:35Z</time></wpt>
  <wpt lat="32.4397600" lon="-97.8052200"><time>2026-01-01T09:14:36Z</time></wpt>
  <wpt lat="32.4397600" lon="-97.8052200"><time>2026-01-01T09:14:37Z</time></wpt>
  <wpt lat="32.4397600" lon="-97.8052200"><time>2026-01-01T09:14:38Z</time></wpt>
  <wpt lat="32.4397600" lon="-97.8052200"><time>2026-01-01T09:14:39Z</time></wpt>
  <wpt lat="32.4397600" lon="-97.8052200"><time>2026-01-01T09:14:40Z</time></wpt>
  <wpt lat="32.4397600" lon="-97.8052200"><time>2026-01-01T09:14:41Z</time></wpt>
  <wpt lat="32.4397600" lon="-97.8052200"><time>2026-01-01T09:14:42Z</time></wpt>
  <wpt lat="32.4397600" lon="-97.8052200"><time>2026-01-01T09:14:43Z</time></wpt>
  <wpt lat="32.4397600" lon="-97.8052200"><time>2026-01-01T09:14:44Z</time></wpt>
  <wpt lat="32.4397600" lon="-97.8052200"><time>2026-01-01T09:14:45Z</time></wpt>
  <wpt lat="32.4397600" lon="-97.8052200"><time>2026-01-01T09:14:46Z</time></wpt>
  <wpt lat="32.4397600" lon="-97.8052200"><time>2026-01-01T09:14:47Z</time></wpt>
  <wpt lat="32.4397600" lon="-97.8052200"><time>2026-01-01T09:14:48Z</time></wpt>
  <wpt lat="32.4397600" lon="-97.8052200"><time>2026-01-01T09:14:49Z</time></wpt>
  <wpt lat="32.4397600" lon="-97.8052200"><time>2026-01-01T09:14:50Z</time></wpt>
  <wpt lat="32.4397600" lon="-97.8052200"><time>2026-01-01T09:14:51Z</time></wpt>
  <wpt lat="32.4397600" lon="-97.8052200"><time>2026-01-01T09:14:52Z</time></wpt>
  <wpt lat="32.4397600" lon="-97.8052200"><time>2026-01-01T09:14:53Z</time></wpt>
  <wpt lat="32.4397600" lon="-97.8052200"><time>2026-01-01T09:14:54Z</time></wpt>
  <wpt lat="32.4397600" lon="-97.8052200"><time>2026-01-01T09:14:55Z</time></wpt>
  <wpt lat="32.4397600" lon="-97.8052200"><time>2026-01-01T09:14:56Z</time></wpt>
  <wpt lat="32.4397600" lon="-97.8052200"><time>2026-01-01T09:14:57Z</time></wpt>
  <wpt lat="32.4397600" lon="-97.8052200"><time>2026-01-01T09:14:58Z</time></wpt>
  <wpt lat="32.4397600" lon="-97.8052200"><time>2026-01-01T09:14:59Z</time></wpt>
</gpx>
